{"type": "FeatureCollection", "features": [{"type": "Feature", "properties": {"stop_id": "aabpara_down", "stop_name": "Aabpara"}, "geometry": {"type": "Point", "coordinates": [73.0887398, 33.70589133]}}, {"type": "Feature", "properties": {"stop_id": "aabpara_up", "stop_name": "Aabpara"}, "geometry": {"type": "Point", "coordinates": [73.08794082, 33.70572668]}}, {"type": "Feature", "properties": {"stop_id": "aiwan_down", "stop_name": "Aiwan e Sadar Colony"}, "geometry": {"type": "Point", "coordinates": [73.10873332, 33.73374613]}}, {"type": "Feature", "properties": {"stop_id": "aiwan_up", "stop_name": "Aiwan e Sadar Colony"}, "geometry": {"type": "Point", "coordinates": [73.10849341, 33.7337182]}}, {"type": "Feature", "properties": {"stop_id": "ak_brohi_down", "stop_name": "A. K. Brohi Road"}, "geometry": {"type": "Point", "coordinates": [73.00243329, 33.66183905]}}, {"type": "Feature", "properties": {"stop_id": "ak_brohi_up", "stop_name": "A. K. Brohi Road"}, "geometry": {"type": "Point", "coordinates": [73.00217684, 33.66196262]}}, {"type": "Feature", "properties": {"stop_id": "bahria_uni_down", "stop_name": "Bahria University"}, "geometry": {"type": "Point", "coordinates": [73.03164145, 33.71560256]}}, {"type": "Feature", "properties": {"stop_id": "bahria_uni_up", "stop_name": "Bahria University"}, "geometry": {"type": "Point", "coordinates": [73.03121303, 33.71559128]}}, {"type": "Feature", "properties": {"stop_id": "bank_down", "stop_name": "Bank Colony"}, "geometry": {"type": "Point", "coordinates": [73.06213692, 33.70022305]}}, {"type": "Feature", "properties": {"stop_id": "bank_up", "stop_name": "Bank Colony"}, "geometry": {"type": "Point", "coordinates": [73.06194488, 33.7003844]}}, {"type": "Feature", "properties": {"stop_id": "bar_council_down", "stop_name": "Bar Council"}, "geometry": {"type": "Point", "coordinates": [72.99694365, 33.65922891]}}, {"type": "Feature", "properties": {"stop_id": "bar_council_up", "stop_name": "Bar Council"}, "geometry": {"type": "Point", "coordinates": [72.99718386, 33.65929611]}}, {"type": "Feature", "properties": {"stop_id": "bari_imam_up", "stop_name": "Bari Imam"}, "geometry": {"type": "Point", "coordinates": [73.10944502, 33.74355542]}}, {"type": "Feature", "properties": {"stop_id": "bari_imam_down", "stop_name": "Bari Imam"}, "geometry": {"type": "Point", "coordinates": [73.10964209, 33.74348873]}}, {"type": "Feature", "properties": {"stop_id": "Barakahu_down", "stop_name": "Barakahu Stop"}, "geometry": {"type": "Point", "coordinates": [73.16767121, 33.73501466]}}, {"type": "Feature", "properties": {"stop_id": "Barakahu_up", "stop_name": "Barakahu"}, "geometry": {"type": "Point", "coordinates": [73.16561725, 33.73545586]}}, {"type": "Feature", "properties": {"stop_id": "british_homes_down", "stop_name": "British Homes"}, "geometry": {"type": "Point", "coordinates": [72.99897363, 33.61797586]}}, {"type": "Feature", "properties": {"stop_id": "british_homes_up", "stop_name": "British Homes"}, "geometry": {"type": "Point", "coordinates": [73.00021133, 33.61826269]}}, {"type": "Feature", "properties": {"stop_id": "chaman_station_fr_down", "stop_name": "Chaman Metro Station"}, "geometry": {"type": "Point", "coordinates": [73.04366551, 33.6919068]}}, {"type": "Feature", "properties": {"stop_id": "chaman_station_fr_up", "stop_name": "Chaman Metro Station"}, "geometry": {"type": "Point", "coordinates": [73.0437072, 33.69165251]}}, {"type": "Feature", "properties": {"stop_id": "children_hospital_down", "stop_name": "Children Hospital"}, "geometry": {"type": "Point", "coordinates": [73.05555599, 33.70527954]}}, {"type": "Feature", "properties": {"stop_id": "children_hospital_up", "stop_name": "Children Hospital"}, "geometry": {"type": "Point", "coordinates": [73.05558474, 33.70536521]}}, {"type": "Feature", "properties": {"stop_id": "college_morh_down", "stop_name": "College Morh"}, "geometry": {"type": "Point", "coordinates": [73.01834874, 33.68098078]}}, {"type": "Feature", "properties": {"stop_id": "college_morh_up", "stop_name": "College Morh"}, "geometry": {"type": "Point", "coordinates": [73.01904928, 33.68117359]}}, {"type": "Feature", "properties": {"stop_id": "carriage_factory_down", "stop_name": "Carriage Factory"}, "geometry": {"type": "Point", "coordinates": [73.02231904, 33.63024333]}}, {"type": "Feature", "properties": {"stop_id": "carriage_factory_up", "stop_name": "Carriage Factory"}, "geometry": {"type": "Point", "coordinates": [73.02257763, 33.62996787]}}, {"type": "Feature", "properties": {"stop_id": "cda_ijp_down", "stop_name": "CDA-1 Stop"}, "geometry": {"type": "Point", "coordinates": [73.04382662, 33.64150229]}}, {"type": "Feature", "properties": {"stop_id": "cda_ijp_up", "stop_name": "CDA-1 Stop"}, "geometry": {"type": "Point", "coordinates": [73.04417552, 33.64131344]}}, {"type": "Feature", "properties": {"stop_id": "cda_stop_down", "stop_name": "CDA Stop"}, "geometry": {"type": "Point", "coordinates": [73.07808329, 33.70025953]}}, {"type": "Feature", "properties": {"stop_id": "cda_stop_up", "stop_name": "CDA Stop"}, "geometry": {"type": "Point", "coordinates": [73.07779844, 33.70069062]}}, {"type": "Feature", "properties": {"stop_id": "chatta_bakhtawar_down", "stop_name": "Chatta Bakhtawar"}, "geometry": {"type": "Point", "coordinates": [73.15212112, 33.66454697]}}, {"type": "Feature", "properties": {"stop_id": "chatta_bakhtawar_up", "stop_name": "Chatta Bakhtawar"}, "geometry": {"type": "Point", "coordinates": [73.1527488, 33.6642002]}}, {"type": "Feature", "properties": {"stop_id": "children_hospital_down", "stop_name": "Children Hospital"}, "geometry": {"type": "Point", "coordinates": [73.05555599, 33.70527954]}}, {"type": "Feature", "properties": {"stop_id": "children_hospital_gb_down", "stop_name": "Children Hospital"}, "geometry": {"type": "Point", "coordinates": [73.056051, 33.705579]}}, {"type": "Feature", "properties": {"stop_id": "children_hospital_up", "stop_name": "Children Hospital"}, "geometry": {"type": "Point", "coordinates": [73.05558474, 33.70536521]}}, {"type": "Feature", "properties": {"stop_id": "comsats_down", "stop_name": "COMSATS University"}, "geometry": {"type": "Point", "coordinates": [73.15772477, 33.65279753]}}, {"type": "Feature", "properties": {"stop_id": "comsats_up", "stop_name": "COMSATS University"}, "geometry": {"type": "Point", "coordinates": [73.15760919, 33.65316254]}}, {"type": "Feature", "properties": {"stop_id": "ctti_down", "stop_name": "CTTI"}, "geometry": {"type": "Point", "coordinates": [73.0103753, 33.62393646]}}, {"type": "Feature", "properties": {"stop_id": "ctti_up", "stop_name": "CTTI"}, "geometry": {"type": "Point", "coordinates": [73.01049728, 33.62361802]}}, {"type": "Feature", "properties": {"stop_id": "dental_down", "stop_name": "Dental Hospital"}, "geometry": {"type": "Point", "coordinates": [73.04904059, 33.69994662]}}, {"type": "Feature", "properties": {"stop_id": "dental_up", "stop_name": "Dental Hospital"}, "geometry": {"type": "Point", "coordinates": [73.048884, 33.69964837]}}, {"type": "Feature", "properties": {"stop_id": "dev_park_down", "stop_name": "Development Park"}, "geometry": {"type": "Point", "coordinates": [73.04775758, 33.69561578]}}, {"type": "Feature", "properties": {"stop_id": "dev_park_up", "stop_name": "Development Park"}, "geometry": {"type": "Point", "coordinates": [73.04783135, 33.69543927]}}, {"type": "Feature", "properties": {"stop_id": "diplomatic_down", "stop_name": "Diplomatic Enclave Gate 4"}, "geometry": {"type": "Point", "coordinates": [73.11076675, 33.73102428]}}, {"type": "Feature", "properties": {"stop_id": "diplomatic_up", "stop_name": "Diplomatic Enclave Gate 4"}, "geometry": {"type": "Point", "coordinates": [73.11054991, 33.73101879]}}, {"type": "Feature", "properties": {"stop_id": "dhok_kala_down", "stop_name": "Dhoke Kala Khan"}, "geometry": {"type": "Point", "coordinates": [73.09831828, 33.65007895]}}, {"type": "Feature", "properties": {"stop_id": "dhok_kala_up", "stop_name": "Dhoke Kala Khan"}, "geometry": {"type": "Point", "coordinates": [73.09778298, 33.64976531]}}, {"type": "Feature", "properties": {"stop_id": "eme_college_down", "stop_name": "EME College"}, "geometry": {"type": "Point", "coordinates": [72.95397341, 33.62380656]}}, {"type": "Feature", "properties": {"stop_id": "eme_college_up", "stop_name": "EME College"}, "geometry": {"type": "Point", "coordinates": [72.95409082, 33.62405734]}}, {"type": "Feature", "properties": {"stop_id": "f10_down", "stop_name": "F-10 Markaz"}, "geometry": {"type": "Point", "coordinates": [73.0120975, 33.69417227]}}, {"type": "Feature", "properties": {"stop_id": "f10_up", "stop_name": "F-10 Markaz"}, "geometry": {"type": "Point", "coordinates": [73.0122906, 33.69407323]}}, {"type": "Feature", "properties": {"stop_id": "f10f11_down", "stop_name": "F-10/ F-11 Greenbelt"}, "geometry": {"type": "Point", "coordinates": [72.99682048, 33.68695433]}}, {"type": "Feature", "properties": {"stop_id": "f10f11_up", "stop_name": "F-10/ F-11 Greenbelt"}, "geometry": {"type": "Point", "coordinates": [72.99695637, 33.68673825]}}, {"type": "Feature", "properties": {"stop_id": "f11_markaz_down", "stop_name": "F-11 Markaz"}, "geometry": {"type": "Point", "coordinates": [72.98812477, 33.68294111]}}, {"type": "Feature", "properties": {"stop_id": "f11_markaz_up", "stop_name": "F-11 Markaz"}, "geometry": {"type": "Point", "coordinates": [72.9889853, 33.6825768]}}, {"type": "Feature", "properties": {"stop_id": "f8_markaz_down", "stop_name": "F-8 Markaz"}, "geometry": {"type": "Point", "coordinates": [73.03731216, 33.71185552]}}, {"type": "Feature", "properties": {"stop_id": "f8_markaz_up", "stop_name": "F-8 Markaz"}, "geometry": {"type": "Point", "coordinates": [73.03716279, 33.71173404]}}, {"type": "Feature", "properties": {"stop_id": "f9_park_down", "stop_name": "F-9 Park Ravi Gate"}, "geometry": {"type": "Point", "coordinates": [73.02893835, 33.70971001]}}, {"type": "Feature", "properties": {"stop_id": "f9_park_up", "stop_name": "F-9 Park Ravi Gate"}, "geometry": {"type": "Point", "coordinates": [73.02849518, 33.70974193]}}, {"type": "Feature", "properties": {"stop_id": "faisal_masjid_down", "stop_name": "Faisal Masjid"}, "geometry": {"type": "Point", "coordinates": [73.04010509, 33.72739822]}}, {"type": "Feature", "properties": {"stop_id": "faisal_masjid_up", "stop_name": "Faisal Masjid"}, "geometry": {"type": "Point", "coordinates": [73.03980805, 33.72740136]}}, {"type": "Feature", "properties": {"stop_id": "fazaia_housing_down", "stop_name": "Fazaia Housing Society"}, "geometry": {"type": "Point", "coordinates": [73.02181217, 33.71065694]}}, {"type": "Feature", "properties": {"stop_id": "fazaia_housing_up", "stop_name": "Fazaia Housing Society"}, "geometry": {"type": "Point", "coordinates": [73.02137838, 33.7101905]}}, {"type": "Feature", "properties": {"stop_id": "g10_markaz_down", "stop_name": "G-10 Markaz"}, "geometry": {"type": "Point", "coordinates": [73.01443929, 33.67670728]}}, {"type": "Feature", "properties": {"stop_id": "faizabad_interchange_down", "stop_name": "Faizabad Interchange"}, "geometry": {"type": "Point", "coordinates": [73.08684102, 33.66399917]}}, {"type": "Feature", "properties": {"stop_id": "faizabad_interchange_up", "stop_name": "Faizabad Interchange"}, "geometry": {"type": "Point", "coordinates": [73.08686444, 33.66680354]}}, {"type": "Feature", "properties": {"stop_id": "faizabad_station_down", "stop_name": "Faizabad Metro Station"}, "geometry": {"type": "Point", "coordinates": [73.08220051, 33.66188134]}}, {"type": "Feature", "properties": {"stop_id": "faizabad_station_up", "stop_name": "Faizabad Metro Station"}, "geometry": {"type": "Point", "coordinates": [73.08263847, 33.66179723]}}, {"type": "Feature", "properties": {"stop_id": "fauji_colony_down", "stop_name": "Fauji Colony"}, "geometry": {"type": "Point", "coordinates": [73.02711182, 33.63285499]}}, {"type": "Feature", "properties": {"stop_id": "fauji_colony_up", "stop_name": "Fauji Colony"}, "geometry": {"type": "Point", "coordinates": [73.02742529, 33.63252727]}}, {"type": "Feature", "properties": {"stop_id": "fazaia_colony_down", "stop_name": "Fazaia Colony"}, "geometry": {"type": "Point", "coordinates": [73.120018, 33.62015977]}}, {"type": "Feature", "properties": {"stop_id": "fazaia_colony_up", "stop_name": "Fazaia Colony"}, "geometry": {"type": "Point", "coordinates": [73.12032961, 33.62060808]}}, {"type": "Feature", "properties": {"stop_id": "fazaia_housing_down", "stop_name": "Fazaia Housing Society"}, "geometry": {"type": "Point", "coordinates": [73.02181217, 33.71065694]}}, {"type": "Feature", "properties": {"stop_id": "fazaia_housing_up", "stop_name": "Fazaia Housing Society"}, "geometry": {"type": "Point", "coordinates": [73.02137838, 33.7101905]}}, {"type": "Feature", "properties": {"stop_id": "fo_down", "stop_name": "Foreign Office"}, "geometry": {"type": "Point", "coordinates": [73.09988684, 33.71175696]}}, {"type": "Feature", "properties": {"stop_id": "fo_up", "stop_name": "Foreign Office"}, "geometry": {"type": "Point", "coordinates": [73.09861461, 33.71142248]}}, {"type": "Feature", "properties": {"stop_id": "g10_markaz_down", "stop_name": "G-10 Markaz"}, "geometry": {"type": "Point", "coordinates": [73.01443929, 33.67670728]}}, {"type": "Feature", "properties": {"stop_id": "g10_markaz_up", "stop_name": "G-10 Markaz"}, "geometry": {"type": "Point", "coordinates": [73.01542111, 33.67715055]}}, {"type": "Feature", "properties": {"stop_id": "g11_markaz_down", "stop_name": "G-11 Markaz"}, "geometry": {"type": "Point", "coordinates": [72.99787954, 33.66977676]}}, {"type": "Feature", "properties": {"stop_id": "g11_markaz_up", "stop_name": "G-11 Markaz"}, "geometry": {"type": "Point", "coordinates": [72.99816429, 33.6696951]}}, {"type": "Feature", "properties": {"stop_id": "g61_down", "stop_name": "G-6/1,2"}, "geometry": {"type": "Point", "coordinates": [73.08016275, 33.71237987]}}, {"type": "Feature", "properties": {"stop_id": "g61_up", "stop_name": "G-6/1,2"}, "geometry": {"type": "Point", "coordinates": [73.08078781, 33.7129049]}}, {"type": "Feature", "properties": {"stop_id": "g8_markaz_down", "stop_name": "G-8 Markaz"}, "geometry": {"type": "Point", "coordinates": [73.04746434, 33.69912486]}}, {"type": "Feature", "properties": {"stop_id": "g8_markaz_up", "stop_name": "G-8 Markaz"}, "geometry": {"type": "Point", "coordinates": [73.04743124, 33.69893057]}}, {"type": "Feature", "properties": {"stop_id": "g9_markaz_down", "stop_name": "G-9 Markaz"}, "geometry": {"type": "Point", "coordinates": [73.03003559, 33.68969869]}}, {"type": "Feature", "properties": {"stop_id": "g9_markaz_up", "stop_name": "G-9 Markaz"}, "geometry": {"type": "Point", "coordinates": [73.0302745, 33.68986808]}}, {"type": "Feature", "properties": {"stop_id": "g94_park_down", "stop_name": "G-9/4 Park"}, "geometry": {"type": "Point", "coordinates": [73.03709775, 33.68926726]}}, {"type": "Feature", "properties": {"stop_id": "g94_park_up", "stop_name": "G-9/4 Park"}, "geometry": {"type": "Point", "coordinates": [73.03706184, 33.68902948]}}, {"type": "Feature", "properties": {"stop_id": "golra_f11_down", "stop_name": "Golra Sharif"}, "geometry": {"type": "Point", "coordinates": [72.98222785, 33.68930156]}}, {"type": "Feature", "properties": {"stop_id": "golra_f11_up", "stop_name": "Golra Sharif"}, "geometry": {"type": "Point", "coordinates": [72.98183643, 33.68939565]}}, {"type": "Feature", "properties": {"stop_id": "greenbelt_gg_down", "stop_name": "Greenbelt G-10/G-11"}, "geometry": {"type": "Point", "coordinates": [73.00724343, 33.67291594]}}, {"type": "Feature", "properties": {"stop_id": "greenbelt_gg_up", "stop_name": "Greenbelt G-10/G-11"}, "geometry": {"type": "Point", "coordinates": [73.00745474, 33.67283266]}}, {"type": "Feature", "properties": {"stop_id": "g7g8_down", "stop_name": "G-7/ G-8"}, "geometry": {"type": "Point", "coordinates": [73.06199399, 33.69771511]}}, {"type": "Feature", "properties": {"stop_id": "g7g8_up", "stop_name": "G-7 / G-8"}, "geometry": {"type": "Point", "coordinates": [73.06232281, 33.69656254]}}, {"type": "Feature", "properties": {"stop_id": "gangal_down", "stop_name": "Gangal"}, "geometry": {"type": "Point", "coordinates": [73.12597913, 33.61230618]}}, {"type": "Feature", "properties": {"stop_id": "gangal_up", "stop_name": "Gangal"}, "geometry": {"type": "Point", "coordinates": [73.12619087, 33.61288497]}}, {"type": "Feature", "properties": {"stop_id": "garden_avenue_down", "stop_name": "Garden Avenue"}, "geometry": {"type": "Point", "coordinates": [73.10684253, 33.68521452]}}, {"type": "Feature", "properties": {"stop_id": "garden_avenue_up", "stop_name": "Garden Avenue"}, "geometry": {"type": "Point", "coordinates": [73.1065224, 33.68530141]}}, {"type": "Feature", "properties": {"stop_id": "golra_morh_fr9_down", "stop_name": "Golra Morh Chowk"}, "geometry": {"type": "Point", "coordinates": [72.9709844, 33.62503564]}}, {"type": "Feature", "properties": {"stop_id": "golra_morh_fr9_up", "stop_name": "Golra Morh Chowk"}, "geometry": {"type": "Point", "coordinates": [72.97079139, 33.62461576]}}, {"type": "Feature", "properties": {"stop_id": "golra_morh_station_fr_down", "stop_name": "Golra Morh Metro Station"}, "geometry": {"type": "Point", "coordinates": [72.96244139, 33.6414719]}}, {"type": "Feature", "properties": {"stop_id": "golra_morh_station_fr_up", "stop_name": "Golra Morh Metro Station"}, "geometry": {"type": "Point", "coordinates": [72.96204681, 33.64141093]}}, {"type": "Feature", "properties": {"stop_id": "green_avenue_down", "stop_name": "Green Avenue"}, "geometry": {"type": "Point", "coordinates": [73.14921499, 33.66795948]}}, {"type": "Feature", "properties": {"stop_id": "green_avenue_up", "stop_name": "Green Avenue"}, "geometry": {"type": "Point", "coordinates": [73.15014159, 33.66730581]}}, {"type": "Feature", "properties": {"stop_id": "gulberg_down", "stop_name": "Gulberg"}, "geometry": {"type": "Point", "coordinates": [73.13692279, 33.59765083]}}, {"type": "Feature", "properties": {"stop_id": "gulberg_up", "stop_name": "Gulberg"}, "geometry": {"type": "Point", "coordinates": [73.13734954, 33.59772527]}}, {"type": "Feature", "properties": {"stop_id": "hostel_city_down", "stop_name": "Hostel City"}, "geometry": {"type": "Point", "coordinates": [73.15355739, 33.65718114]}}, {"type": "Feature", "properties": {"stop_id": "hostel_city_up", "stop_name": "Hostel City"}, "geometry": {"type": "Point", "coordinates": [73.15386886, 33.65719433]}}, {"type": "Feature", "properties": {"stop_id": "ibn_sina_g94_down", "stop_name": "Ibn-e-Sina Road G-9"}, "geometry": {"type": "Point", "coordinates": [73.03637417, 33.69758956]}}, {"type": "Feature", "properties": {"stop_id": "ibn_sina_g94_up", "stop_name": "Ibn-e-Sina Road G-9"}, "geometry": {"type": "Point", "coordinates": [73.0362464, 33.69778261]}}, {"type": "Feature", "properties": {"stop_id": "ibn_station_down", "stop_name": "Ibn-e-Sina Metro Station"}, "geometry": {"type": "Point", "coordinates": [73.0393243, 33.69686278]}}, {"type": "Feature", "properties": {"stop_id": "ibn_station_up", "stop_name": "Ibn-e-Sina Metro Station"}, "geometry": {"type": "Point", "coordinates": [73.03936631, 33.69691934]}}, {"type": "Feature", "properties": {"stop_id": "icb_down", "stop_name": "ICB College"}, "geometry": {"type": "Point", "coordinates": [73.09060449, 33.71804943]}}, {"type": "Feature", "properties": {"stop_id": "icb_up", "stop_name": "ICB College"}, "geometry": {"type": "Point", "coordinates": [73.09057312, 33.71811805]}}, {"type": "Feature", "properties": {"stop_id": "imcb_f104_down", "stop_name": "IMCB F-10/4"}, "geometry": {"type": "Point", "coordinates": [73.00597121, 33.6909654]}}, {"type": "Feature", "properties": {"stop_id": "imcb_f104_up", "stop_name": "IMCB F-10/4"}, "geometry": {"type": "Point", "coordinates": [73.0060487, 33.69082443]}}, {"type": "Feature", "properties": {"stop_id": "ims_down", "stop_name": "Institute of Modern Studies"}, "geometry": {"type": "Point", "coordinates": [73.00293029, 33.67193103]}}, {"type": "Feature", "properties": {"stop_id": "ims_up", "stop_name": "Institute of Modern Studies"}, "geometry": {"type": "Point", "coordinates": [73.00289061, 33.67176007]}}, {"type": "Feature", "properties": {"stop_id": "iqbal_hall_down", "stop_name": "Iqbal Hall"}, "geometry": {"type": "Point", "coordinates": [73.07496339, 33.70904802]}}, {"type": "Feature", "properties": {"stop_id": "iqbal_hall_up", "stop_name": "Iqbal Hall"}, "geometry": {"type": "Point", "coordinates": [73.07493847, 33.70926772]}}, {"type": "Feature", "properties": {"stop_id": "ijp_station_fr_down", "stop_name": "IJP Metro Station"}, "geometry": {"type": "Point", "coordinates": [73.06965844, 33.65557403]}}, {"type": "Feature", "properties": {"stop_id": "ijp_station_fr_up", "stop_name": "IJP Metro Station"}, "geometry": {"type": "Point", "coordinates": [73.07205135, 33.65594621]}}, {"type": "Feature", "properties": {"stop_id": "iqbal_town_down", "stop_name": "Iqbal Town"}, "geometry": {"type": "Point", "coordinates": [73.10156894, 33.64584176]}}, {"type": "Feature", "properties": {"stop_id": "iqbal_town_up", "stop_name": "Iqbal Town"}, "geometry": {"type": "Point", "coordinates": [73.10084449, 33.64582366]}}, {"type": "Feature", "properties": {"stop_id": "itp_down", "stop_name": "ITP Centre"}, "geometry": {"type": "Point", "coordinates": [73.092873, 33.67122971]}}, {"type": "Feature", "properties": {"stop_id": "itp_up", "stop_name": "ITP Centre"}, "geometry": {"type": "Point", "coordinates": [73.09291283, 33.67178766]}}, {"type": "Feature", "properties": {"stop_id": "karachi_company_down", "stop_name": "Karachi Company"}, "geometry": {"type": "Point", "coordinates": [73.03483972, 33.68864969]}}, {"type": "Feature", "properties": {"stop_id": "karachi_company_up", "stop_name": "Karachi Company"}, "geometry": {"type": "Point", "coordinates": [73.03464442, 33.68868004]}}, {"type": "Feature", "properties": {"stop_id": "katcher_down", "stop_name": "F-8 Katchery"}, "geometry": {"type": "Point", "coordinates": [73.03960237, 33.70889105]}}, {"type": "Feature", "properties": {"stop_id": "katcher_up", "stop_name": "Katchery"}, "geometry": {"type": "Point", "coordinates": [73.03934848, 33.70880773]}}, {"type": "Feature", "properties": {"stop_id": "koral_chowk_down", "stop_name": "Koral Chowk"}, "geometry": {"type": "Point", "coordinates": [73.13305374, 33.60258345]}}, {"type": "Feature", "properties": {"stop_id": "koral_chowk_up", "stop_name": "Koral Chowk"}, "geometry": {"type": "Point", "coordinates": [73.13318643, 33.60334465]}}, {"type": "Feature", "properties": {"stop_id": "kashmir_chowk_down", "stop_name": "Kashmir Chowk"}, "geometry": {"type": "Point", "coordinates": [73.10531883, 33.70824775]}}, {"type": "Feature", "properties": {"stop_id": "kashmir_chowk_up", "stop_name": "Kashmir Chowk"}, "geometry": {"type": "Point", "coordinates": [73.10631134, 33.70750168]}}, {"type": "Feature", "properties": {"stop_id": "katarian_down", "stop_name": "Katarian Chungi"}, "geometry": {"type": "Point", "coordinates": [73.05808503, 33.64891418]}}, {"type": "Feature", "properties": {"stop_id": "katarian_pull_down", "stop_name": "Katarian Pull"}, "geometry": {"type": "Point", "coordinates": [73.05182023, 33.64585435]}}, {"type": "Feature", "properties": {"stop_id": "katarian_pull_up", "stop_name": "Katarian Pull"}, "geometry": {"type": "Point", "coordinates": [73.05242611, 33.64587208]}}, {"type": "Feature", "properties": {"stop_id": "katarian_up", "stop_name": "Katarian Chungi"}, "geometry": {"type": "Point", "coordinates": [73.05845293, 33.64880977]}}, {"type": "Feature", "properties": {"stop_id": "khanna_pull_down", "stop_name": "Khanna Pull"}, "geometry": {"type": "Point", "coordinates": [73.11586057, 33.6268875]}}, {"type": "Feature", "properties": {"stop_id": "khanna_pull_up", "stop_name": "Khanna Pull"}, "geometry": {"type": "Point", "coordinates": [73.11562803, 33.62590233]}}, {"type": "Feature", "properties": {"stop_id": "khanna_pull_fr9_up", "stop_name": "Khanna Pull"}, "geometry": {"type": "Point", "coordinates": [73.11655396, 33.62736123]}}, {"type": "Feature", "properties": {"stop_id": "kohinoor_colony_down", "stop_name": "Kohinoor Mill Colony"}, "geometry": {"type": "Point", "coordinates": [72.98178816, 33.61865696]}}, {"type": "Feature", "properties": {"stop_id": "kohinoor_colony_up", "stop_name": "Kohinoor Mill Colony"}, "geometry": {"type": "Point", "coordinates": [72.98681752, 33.61656011]}}, {"type": "Feature", "properties": {"stop_id": "kohinoor_down", "stop_name": "Kohinoor Mill"}, "geometry": {"type": "Point", "coordinates": [72.97601888, 33.62239053]}}, {"type": "Feature", "properties": {"stop_id": "kohinoor_up", "stop_name": "Kohinoor Mill"}, "geometry": {"type": "Point", "coordinates": [72.98085921, 33.61902542]}}, {"type": "Feature", "properties": {"stop_id": "kuri_road_down", "stop_name": "Kuri Road"}, "geometry": {"type": "Point", "coordinates": [73.10387865, 33.64254121]}}, {"type": "Feature", "properties": {"stop_id": "kuri_road_up", "stop_name": "Kuri Road"}, "geometry": {"type": "Point", "coordinates": [73.10353281, 33.64216227]}}, {"type": "Feature", "properties": {"stop_id": "lodges_down", "stop_name": "Lodges Park"}, "geometry": {"type": "Point", "coordinates": [73.09834316, 33.71605097]}}, {"type": "Feature", "properties": {"stop_id": "lodges_up", "stop_name": "Lodges Park"}, "geometry": {"type": "Point", "coordinates": [73.09846991, 33.71604884]}}, {"type": "Feature", "properties": {"stop_id": "lake_down", "stop_name": "Lake View Point"}, "geometry": {"type": "Point", "coordinates": [73.1354376, 33.72297146]}}, {"type": "Feature", "properties": {"stop_id": "lake_up", "stop_name": "Lake View Point"}, "geometry": {"type": "Point", "coordinates": [73.13603676, 33.72297649]}}, {"type": "Feature", "properties": {"stop_id": "major_down", "stop_name": "Major Road"}, "geometry": {"type": "Point", "coordinates": [72.99394221, 33.68609191]}}, {"type": "Feature", "properties": {"stop_id": "major_up", "stop_name": "Major Road F-11"}, "geometry": {"type": "Point", "coordinates": [72.99176385, 33.68442868]}}, {"type": "Feature", "properties": {"stop_id": "margalla_ground_down", "stop_name": "Margalla Ground G-9"}, "geometry": {"type": "Point", "coordinates": [73.03392013, 33.68491765]}}, {"type": "Feature", "properties": {"stop_id": "margalla_ground_up", "stop_name": "Margalla Ground G-9"}, "geometry": {"type": "Point", "coordinates": [73.03459012, 33.68478325]}}, {"type": "Feature", "properties": {"stop_id": "maroof_down", "stop_name": "Maroof International Hospital"}, "geometry": {"type": "Point", "coordinates": [73.01228789, 33.69768448]}}, {"type": "Feature", "properties": {"stop_id": "maroof_up", "stop_name": "Maroof International Hospital"}, "geometry": {"type": "Point", "coordinates": [73.01242546, 33.69787147]}}, {"type": "Feature", "properties": {"stop_id": "mci_down", "stop_name": "Metropolitan Corporation"}, "geometry": {"type": "Point", "coordinates": [73.08747806, 33.71615995]}}, {"type": "Feature", "properties": {"stop_id": "mci_up", "stop_name": "Metropolitan Corporation"}, "geometry": {"type": "Point", "coordinates": [73.08734953, 33.71594497]}}, {"type": "Feature", "properties": {"stop_id": "mehrabadi_down", "stop_name": "Mehrabad"}, "geometry": {"type": "Point", "coordinates": [72.9897919, 33.66654822]}}, {"type": "Feature", "properties": {"stop_id": "mehrabadi_up", "stop_name": "Mehrabad"}, "geometry": {"type": "Point", "coordinates": [72.98982022, 33.66632818]}}, {"type": "Feature", "properties": {"stop_id": "melody_down", "stop_name": "Melody Market"}, "geometry": {"type": "Point", "coordinates": [73.08448705, 33.71467638]}}, {"type": "Feature", "properties": {"stop_id": "melody_up", "stop_name": "Melody Market"}, "geometry": {"type": "Point", "coordinates": [73.08495023, 33.71472406]}}, {"type": "Feature", "properties": {"stop_id": "mofa_down", "stop_name": "Ministry of Foreign Affairs"}, "geometry": {"type": "Point", "coordinates": [73.10398822, 33.71855911]}}, {"type": "Feature", "properties": {"stop_id": "mofa_up", "stop_name": "Ministry of Foreign Affairs"}, "geometry": {"type": "Point", "coordinates": [73.10373115, 33.71835195]}}, {"type": "Feature", "properties": {"stop_id": "muslim_colony_down", "stop_name": "Muslim Colony"}, "geometry": {"type": "Point", "coordinates": [73.1083125, 33.73820534]}}, {"type": "Feature", "properties": {"stop_id": "muslim_colony_up", "stop_name": "Muslim Colony"}, "geometry": {"type": "Point", "coordinates": [73.10821799, 33.7382182]}}, {"type": "Feature", "properties": {"stop_id": "malpur_down", "stop_name": "Malpur"}, "geometry": {"type": "Point", "coordinates": [73.14464946, 33.72972163]}}, {"type": "Feature", "properties": {"stop_id": "malpur_up", "stop_name": "Malpur"}, "geometry": {"type": "Point", "coordinates": [73.14398094, 33.72889005]}}, {"type": "Feature", "properties": {"stop_id": "mandi_morh_down", "stop_name": "Mandi Morh"}, "geometry": {"type": "Point", "coordinates": [73.03263479, 33.63567323]}}, {"type": "Feature", "properties": {"stop_id": "mandi_morh_fr1_down", "stop_name": "Mandi Morh"}, "geometry": {"type": "Point", "coordinates": [73.03458668, 33.637028]}}, {"type": "Feature", "properties": {"stop_id": "mandi_morh_fr1_up", "stop_name": "Mandi Morh"}, "geometry": {"type": "Point", "coordinates": [73.03459575, 33.6369233]}}, {"type": "Feature", "properties": {"stop_id": "mandi_morh_up", "stop_name": "Mandi Morh"}, "geometry": {"type": "Point", "coordinates": [73.03159519, 33.63457732]}}, {"type": "Feature", "properties": {"stop_id": "margalla_town_down", "stop_name": "Margalla Town"}, "geometry": {"type": "Point", "coordinates": [73.10155233, 33.68110966]}}, {"type": "Feature", "properties": {"stop_id": "margalla_town_up", "stop_name": "Margalla Town"}, "geometry": {"type": "Point", "coordinates": [73.10160518, 33.68145652]}}, {"type": "Feature", "properties": {"stop_id": "motorway_chowk_down", "stop_name": "Motorway Chowk"}, "geometry": {"type": "Point", "coordinates": [72.94320168, 33.62875879]}}, {"type": "Feature", "properties": {"stop_id": "motorway_chowk_up", "stop_name": "Motorway Chowk"}, "geometry": {"type": "Point", "coordinates": [72.94371, 33.62889407]}}, {"type": "Feature", "properties": {"stop_id": "top_city_down", "stop_name": "Top City"}, "geometry": {"type": "Point", "coordinates": [72.8603859697169, 33.5864580783803]}}, {"type": "Feature", "properties": {"stop_id": "top_city_up", "stop_name": "Top City"}, "geometry": {"type": "Point", "coordinates": [72.8614642618682, 33.5847278870677]}}, {"type": "Feature", "properties": {"stop_id": "nadra_down", "stop_name": "NADRA Chowk"}, "geometry": {"type": "Point", "coordinates": [73.09473076, 33.72028927]}}, {"type": "Feature", "properties": {"stop_id": "nadra_up", "stop_name": "NADRA Chowk"}, "geometry": {"type": "Point", "coordinates": [73.09529683, 33.72023533]}}, {"type": "Feature", "properties": {"stop_id": "nat_library_down", "stop_name": "National Library"}, "geometry": {"type": "Point", "coordinates": [73.10272605, 33.72441324]}}, {"type": "Feature", "properties": {"stop_id": "nat_library_up", "stop_name": "National Library"}, "geometry": {"type": "Point", "coordinates": [73.10270599, 33.72460724]}}, {"type": "Feature", "properties": {"stop_id": "naval_down", "stop_name": "Naval Complex"}, "geometry": {"type": "Point", "coordinates": [73.03744274, 33.71866813]}}, {"type": "Feature", "properties": {"stop_id": "naval_up", "stop_name": "Naval Complex"}, "geometry": {"type": "Point", "coordinates": [73.03744306, 33.71886635]}}, {"type": "Feature", "properties": {"stop_id": "noori_down", "stop_name": "Muhallah Noori Bagh"}, "geometry": {"type": "Point", "coordinates": [73.11309449, 33.74430838]}}, {"type": "Feature", "properties": {"stop_id": "noori_up", "stop_name": "Muhallah Noori Bagh"}, "geometry": {"type": "Point", "coordinates": [73.11308783, 33.74442188]}}, {"type": "Feature", "properties": {"stop_id": "nori_hosp_down", "stop_name": "NORI Hospital"}, "geometry": {"type": "Point", "coordinates": [73.05317194, 33.69834094]}}, {"type": "Feature", "properties": {"stop_id": "nori_hosp_up", "stop_name": "NORI Hospital"}, "geometry": {"type": "Point", "coordinates": [73.05373324, 33.69842279]}}, {"type": "Feature", "properties": {"stop_id": "nust_station_fr_down", "stop_name": "NUST Metro Station"}, "geometry": {"type": "Point", "coordinates": [72.99287088, 33.65684931]}}, {"type": "Feature", "properties": {"stop_id": "nust_station_fr_up", "stop_name": "NUST Metro Station"}, "geometry": {"type": "Point", "coordinates": [72.99270699, 33.65694008]}}, {"type": "Feature", "properties": {"stop_id": "n5_station_fr11_up", "stop_name": "N-5 Metro Station"}, "geometry": {"type": "Point", "coordinates": [72.94546197, 33.63097583]}}, {"type": "Feature", "properties": {"stop_id": "n5_station_fr_down", "stop_name": "N-5 Metro Station"}, "geometry": {"type": "Point", "coordinates": [72.94560188, 33.63198126]}}, {"type": "Feature", "properties": {"stop_id": "n5_station_fr13_up", "stop_name": "N-5 Metro Station"}, "geometry": {"type": "Point", "coordinates": [72.94513923, 33.63150295]}}, {"type": "Feature", "properties": {"stop_id": "narc_colony_down", "stop_name": "NARC Colony"}, "geometry": {"type": "Point", "coordinates": [73.13137648, 33.68723484]}}, {"type": "Feature", "properties": {"stop_id": "narc_colony_up", "stop_name": "NARC Colony"}, "geometry": {"type": "Point", "coordinates": [73.1309279, 33.68752881]}}, {"type": "Feature", "properties": {"stop_id": "nih_allergy_down", "stop_name": "NIH Allergy Center"}, "geometry": {"type": "Point", "coordinates": [73.13477204, 33.68507493]}}, {"type": "Feature", "properties": {"stop_id": "nih_allergy_up", "stop_name": "NIH Allergy Center"}, "geometry": {"type": "Point", "coordinates": [73.13510897, 33.68511973]}}, {"type": "Feature", "properties": {"stop_id": "opf_down", "stop_name": "OPF"}, "geometry": {"type": "Point", "coordinates": [72.98436027, 33.68638251]}}, {"type": "Feature", "properties": {"stop_id": "opf_up", "stop_name": "OPF"}, "geometry": {"type": "Point", "coordinates": [72.98392493, 33.68658982]}}, {"type": "Feature", "properties": {"stop_id": "paf_hos_down", "stop_name": "PAF Hospital"}, "geometry": {"type": "Point", "coordinates": [73.01622087, 33.70772927]}}, {"type": "Feature", "properties": {"stop_id": "paf_hos_up", "stop_name": "PAF Hospital"}, "geometry": {"type": "Point", "coordinates": [73.01683258, 33.70779317]}}, {"type": "Feature", "properties": {"stop_id": "pak_dci_down", "stop_name": "Pakistan Gate DCI"}, "geometry": {"type": "Point", "coordinates": [73.00840068, 33.70283511]}}, {"type": "Feature", "properties": {"stop_id": "pak_dci_up", "stop_name": "Pakistan Gate DCI"}, "geometry": {"type": "Point", "coordinates": [73.00923609, 33.70378705]}}, {"type": "Feature", "properties": {"stop_id": "pha_flats_g10_down", "stop_name": "PHA Flats"}, "geometry": {"type": "Point", "coordinates": [73.01240193, 33.67564438]}}, {"type": "Feature", "properties": {"stop_id": "pha_flats_g10_up", "stop_name": "PHA Flats"}, "geometry": {"type": "Point", "coordinates": [73.01255342, 33.67549503]}}, {"type": "Feature", "properties": {"stop_id": "pims_hospital_fr_down", "stop_name": "PIMS Hospital"}, "geometry": {"type": "Point", "coordinates": [73.05228287, 33.70595731]}}, {"type": "Feature", "properties": {"stop_id": "pims_hospital_fr_up", "stop_name": "PIMS Hospital"}, "geometry": {"type": "Point", "coordinates": [73.0521991, 33.70614835]}}, {"type": "Feature", "properties": {"stop_id": "pims_station_fr_down", "stop_name": "PIMS Metro Station"}, "geometry": {"type": "Point", "coordinates": [73.04771298, 33.70576574]}}, {"type": "Feature", "properties": {"stop_id": "pims_station_fr_up", "stop_name": "PIMS Metro Station"}, "geometry": {"type": "Point", "coordinates": [73.04834775, 33.70565102]}}, {"type": "Feature", "properties": {"stop_id": "police_flats_g9_down", "stop_name": "Police Flats"}, "geometry": {"type": "Point", "coordinates": [73.0249928, 33.6844351]}}, {"type": "Feature", "properties": {"stop_id": "police_flats_g9_up", "stop_name": "Police Flats"}, "geometry": {"type": "Point", "coordinates": [73.02514173, 33.68428135]}}, {"type": "Feature", "properties": {"stop_id": "police_foundation_station_fr7_down", "stop_name": "Police Foundation Metro Station"}, "geometry": {"type": "Point", "coordinates": [73.0043460214925, 33.6631183224687]}}, {"type": "Feature", "properties": {"stop_id": "police_foundation_station_fr7_up", "stop_name": "Police Foundation Metro Station"}, "geometry": {"type": "Point", "coordinates": [73.0044502731776, 33.6629000829181]}}, {"type": "Feature", "properties": {"stop_id": "ptcl_f10_down", "stop_name": "PTCL F-11"}, "geometry": {"type": "Point", "coordinates": [72.99141149, 33.68430188]}}, {"type": "Feature", "properties": {"stop_id": "ptcl_f10_up", "stop_name": "PTCL F-11"}, "geometry": {"type": "Point", "coordinates": [72.99170849, 33.6843344]}}, {"type": "Feature", "properties": {"stop_id": "pully_down", "stop_name": "Pully Stop"}, "geometry": {"type": "Point", "coordinates": [73.07032694, 33.70675689]}}, {"type": "Feature", "properties": {"stop_id": "pully_up", "stop_name": "Pully Stop"}, "geometry": {"type": "Point", "coordinates": [73.07046677, 33.70693208]}}, {"type": "Feature", "properties": {"stop_id": "parade_ground_down", "stop_name": "I-8 / Parade Ground"}, "geometry": {"type": "Point", "coordinates": [73.08031488, 33.67324015]}}, {"type": "Feature", "properties": {"stop_id": "parade_ground_up", "stop_name": "I-8 / Parade Ground"}, "geometry": {"type": "Point", "coordinates": [73.08071603, 33.67346777]}}, {"type": "Feature", "properties": {"stop_id": "park_view_city_down", "stop_name": "Park View City"}, "geometry": {"type": "Point", "coordinates": [73.14420726, 33.67392272]}}, {"type": "Feature", "properties": {"stop_id": "park_view_city_up", "stop_name": "Park View City"}, "geometry": {"type": "Point", "coordinates": [73.14436779, 33.67413884]}}, {"type": "Feature", "properties": {"stop_id": "pims_hospital_gb_up", "stop_name": "PIMS Hospital"}, "geometry": {"type": "Point", "coordinates": [73.05073505, 33.70547077]}}, {"type": "Feature", "properties": {"stop_id": "pims_hospital_gb_down", "stop_name": "PIMS Hospital"}, "geometry": {"type": "Point", "coordinates": [73.05045334, 33.70524832]}}, {"type": "Feature", "properties": {"stop_id": "pims_hospital_fr_down", "stop_name": "PIMS Hospital"}, "geometry": {"type": "Point", "coordinates": [73.05228287, 33.70595731]}}, {"type": "Feature", "properties": {"stop_id": "pims_hospital_fr_up", "stop_name": "PIMS Hospital"}, "geometry": {"type": "Point", "coordinates": [73.0521991, 33.70614835]}}, {"type": "Feature", "properties": {"stop_id": "pims_station_fr_down", "stop_name": "PIMS Metro Station"}, "geometry": {"type": "Point", "coordinates": [73.04771298, 33.70576574]}}, {"type": "Feature", "properties": {"stop_id": "pims_station_fr_up", "stop_name": "PIMS Metro Station"}, "geometry": {"type": "Point", "coordinates": [73.04834775, 33.70565102]}}, {"type": "Feature", "properties": {"stop_id": "pindora_chungi_down", "stop_name": "Pindora Chungi"}, "geometry": {"type": "Point", "coordinates": [73.06369298, 33.65193979]}}, {"type": "Feature", "properties": {"stop_id": "pindora_chungi_up", "stop_name": "Pindora Chungi"}, "geometry": {"type": "Point", "coordinates": [73.06399925, 33.65172874]}}, {"type": "Feature", "properties": {"stop_id": "pir_wadhai_down", "stop_name": "Pir Wadhai Morh"}, "geometry": {"type": "Point", "coordinates": [72.99455434, 33.61571783]}}, {"type": "Feature", "properties": {"stop_id": "pir_wadhai_up", "stop_name": "Pir Wadhai Morh"}, "geometry": {"type": "Point", "coordinates": [72.9947575, 33.61544182]}}, {"type": "Feature", "properties": {"stop_id": "pully_stop_ijp_down", "stop_name": "Pully Stop"}, "geometry": {"type": "Point", "coordinates": [73.0359586, 33.63732757]}}, {"type": "Feature", "properties": {"stop_id": "pully_stop_ijp_up", "stop_name": "Pully Stop"}, "geometry": {"type": "Point", "coordinates": [73.03595941, 33.63699847]}}, {"type": "Feature", "properties": {"stop_id": "punjab_col_down", "stop_name": "Punjab College"}, "geometry": {"type": "Point", "coordinates": [73.21745976, 33.76023785]}}, {"type": "Feature", "properties": {"stop_id": "punjab_col_up", "stop_name": "Punjab College"}, "geometry": {"type": "Point", "coordinates": [73.21700965, 33.76042525]}}, {"type": "Feature", "properties": {"stop_id": "pwd_down", "stop_name": "PWD Housing society"}, "geometry": {"type": "Point", "coordinates": [73.15317531, 33.57575756]}}, {"type": "Feature", "properties": {"stop_id": "pwd_up", "stop_name": "PWD Housing society"}, "geometry": {"type": "Point", "coordinates": [73.15337723, 33.57639145]}}, {"type": "Feature", "properties": {"stop_id": "radio_down", "stop_name": "Radio Pakistan"}, "geometry": {"type": "Point", "coordinates": [73.10086779, 33.72274078]}}, {"type": "Feature", "properties": {"stop_id": "radio_up", "stop_name": "Radio Pakistan"}, "geometry": {"type": "Point", "coordinates": [73.10045655, 33.7226287]}}, {"type": "Feature", "properties": {"stop_id": "rescue_down", "stop_name": "Rescue 15"}, "geometry": {"type": "Point", "coordinates": [73.05961959, 33.69980096]}}, {"type": "Feature", "properties": {"stop_id": "rescue_up", "stop_name": "Rescue 15"}, "geometry": {"type": "Point", "coordinates": [73.05981233, 33.69983743]}}, {"type": "Feature", "properties": {"stop_id": "rawal_chowk_down", "stop_name": "Rawal Chowk"}, "geometry": {"type": "Point", "coordinates": [73.11004651, 33.69205444]}}, {"type": "Feature", "properties": {"stop_id": "rawal_chowk_up", "stop_name": "Rawal Chowk"}, "geometry": {"type": "Point", "coordinates": [73.11041962, 33.69259376]}}, {"type": "Feature", "properties": {"stop_id": "rawal_dam_colony_down", "stop_name": "Rawal Dam Colony"}, "geometry": {"type": "Point", "coordinates": [73.12136783, 33.68788707]}}, {"type": "Feature", "properties": {"stop_id": "rawal_dam_colony_up", "stop_name": "Rawal Dam Colony"}, "geometry": {"type": "Point", "coordinates": [73.12138032, 33.68818115]}}, {"type": "Feature", "properties": {"stop_id": "rawal_town_down", "stop_name": "Rawal Town"}, "geometry": {"type": "Point", "coordinates": [73.1128152, 33.68896517]}}, {"type": "Feature", "properties": {"stop_id": "rawal_town_up", "stop_name": "Rawal Town"}, "geometry": {"type": "Point", "coordinates": [73.11281756, 33.68926848]}}, {"type": "Feature", "properties": {"stop_id": "salai_down", "stop_name": "Salai Centre"}, "geometry": {"type": "Point", "coordinates": [73.0664906, 33.70256978]}}, {"type": "Feature", "properties": {"stop_id": "salai_up", "stop_name": "Salai Centre"}, "geometry": {"type": "Point", "coordinates": [73.06640195, 33.70273946]}}, {"type": "Feature", "properties": {"stop_id": "sec_police_down", "stop_name": "Secretariate Police Station"}, "geometry": {"type": "Point", "coordinates": [73.10782915, 33.72709415]}}, {"type": "Feature", "properties": {"stop_id": "sec_police_up", "stop_name": "Secretariate Police Station"}, "geometry": {"type": "Point", "coordinates": [73.10828942, 33.72753441]}}, {"type": "Feature", "properties": {"stop_id": "shaheen_down", "stop_name": "Shaheen Chowk"}, "geometry": {"type": "Point", "coordinates": [73.02704116, 33.71223293]}}, {"type": "Feature", "properties": {"stop_id": "shaheen_up", "stop_name": "Shaheen Chowk"}, "geometry": {"type": "Point", "coordinates": [73.02662097, 33.71221788]}}, {"type": "Feature", "properties": {"stop_id": "sitara_down", "stop_name": "Sitara Market"}, "geometry": {"type": "Point", "coordinates": [73.06695692, 33.70617282]}}, {"type": "Feature", "properties": {"stop_id": "sitara_up", "stop_name": "Sitara Market"}, "geometry": {"type": "Point", "coordinates": [73.06679813, 33.70606458]}}, {"type": "Feature", "properties": {"stop_id": "sukh_park_down", "stop_name": "Sukh Chayn Park"}, "geometry": {"type": "Point", "coordinates": [73.09981203, 33.71315881]}}, {"type": "Feature", "properties": {"stop_id": "sukh_park_up", "stop_name": "Sukh Chayn Park"}, "geometry": {"type": "Point", "coordinates": [73.10029712, 33.71360706]}}, {"type": "Feature", "properties": {"stop_id": "school_board_down", "stop_name": "School Board Stop"}, "geometry": {"type": "Point", "coordinates": [73.11644036, 33.68870244]}}, {"type": "Feature", "properties": {"stop_id": "school_board_up", "stop_name": "School Board Stop"}, "geometry": {"type": "Point", "coordinates": [73.11626498, 33.68900199]}}, {"type": "Feature", "properties": {"stop_id": "shahdara_down", "stop_name": "Shahdara"}, "geometry": {"type": "Point", "coordinates": [73.15927659, 33.73475034]}}, {"type": "Feature", "properties": {"stop_id": "shahdara_up", "stop_name": "Shahdara"}, "geometry": {"type": "Point", "coordinates": [73.1593785, 33.73454388]}}, {"type": "Feature", "properties": {"stop_id": "shakarparia_down", "stop_name": "H-8 / Shakarparia"}, "geometry": {"type": "Point", "coordinates": [73.0723061, 33.6839039]}}, {"type": "Feature", "properties": {"stop_id": "shakarparia_up", "stop_name": "H-8 / Shakarparia"}, "geometry": {"type": "Point", "coordinates": [73.07273292, 33.68409993]}}, {"type": "Feature", "properties": {"stop_id": "shehzad_town_down", "stop_name": "Shahzad Town"}, "geometry": {"type": "Point", "coordinates": [73.14212692, 33.67634257]}}, {"type": "Feature", "properties": {"stop_id": "shehzad_town_up", "stop_name": "Shahzad Town"}, "geometry": {"type": "Point", "coordinates": [73.1423405, 33.67656387]}}, {"type": "Feature", "properties": {"stop_id": "social_sec_hos_down", "stop_name": "Social Security Hospital"}, "geometry": {"type": "Point", "coordinates": [73.00290554, 33.62002172]}}, {"type": "Feature", "properties": {"stop_id": "social_sec_hos_up", "stop_name": "Social Security Hospital"}, "geometry": {"type": "Point", "coordinates": [73.00318224, 33.61980216]}}, {"type": "Feature", "properties": {"stop_id": "sohan_down", "stop_name": "Sohan"}, "geometry": {"type": "Point", "coordinates": [73.09111381, 33.65960239]}}, {"type": "Feature", "properties": {"stop_id": "sohan_up", "stop_name": "Sohan"}, "geometry": {"type": "Point", "coordinates": [73.09052421, 33.6596256]}}, {"type": "Feature", "properties": {"stop_id": "tanki_stop_down", "stop_name": "Tanki Stop"}, "geometry": {"type": "Point", "coordinates": [73.00985673, 33.67430953]}}, {"type": "Feature", "properties": {"stop_id": "tanki_stop_up", "stop_name": "Tanki Stop"}, "geometry": {"type": "Point", "coordinates": [73.01001675, 33.67417803]}}, {"type": "Feature", "properties": {"stop_id": "tipu_market_down", "stop_name": "Tipu Market"}, "geometry": {"type": "Point", "coordinates": [73.04314492, 33.7013921]}}, {"type": "Feature", "properties": {"stop_id": "tipu_market_up", "stop_name": "Tipu Market"}, "geometry": {"type": "Point", "coordinates": [73.04339413, 33.70111706]}}, {"type": "Feature", "properties": {"stop_id": "tamma_down", "stop_name": "Tamma Stop"}, "geometry": {"type": "Point", "coordinates": [73.16188683, 33.64832607]}}, {"type": "Feature", "properties": {"stop_id": "tamma_up", "stop_name": "Tamma Stop"}, "geometry": {"type": "Point", "coordinates": [73.16214038, 33.64843562]}}, {"type": "Feature", "properties": {"stop_id": "tramri_down", "stop_name": "Tramri Chowk"}, "geometry": {"type": "Point", "coordinates": [73.16361614, 33.64474598]}}, {"type": "Feature", "properties": {"stop_id": "tramri_up", "stop_name": "Tramri Chowk"}, "geometry": {"type": "Point", "coordinates": [73.16386625, 33.64478532]}}, {"type": "Feature", "properties": {"stop_id": "westridge_down", "stop_name": "Westridge"}, "geometry": {"type": "Point", "coordinates": [73.01550216, 33.62664448]}}, {"type": "Feature", "properties": {"stop_id": "westridge_up", "stop_name": "Westridge"}, "geometry": {"type": "Point", "coordinates": [73.01570561, 33.62635097]}}, {"type": "Feature", "properties": {"stop_id": "youth_hostel_down", "stop_name": "Youth Hostel"}, "geometry": {"type": "Point", "coordinates": [73.091777, 33.71005416]}}, {"type": "Feature", "properties": {"stop_id": "youth_hostel_up", "stop_name": "Youth Hostel"}, "geometry": {"type": "Point", "coordinates": [73.09183731, 33.70989634]}}, {"type": "Feature", "properties": {"stop_id": "zoo_up", "stop_name": "Murghzar Zoo"}, "geometry": {"type": "Point", "coordinates": [73.0627420035013, 33.7321543588857]}}, {"type": "Feature", "properties": {"stop_id": "zoo_down", "stop_name": "Murghzar Zoo"}, "geometry": {"type": "Point", "coordinates": [73.0629182167957, 33.7319983138638]}}, {"type": "Feature", "properties": {"stop_id": "zero_point_down", "stop_name": "Zero Point"}, "geometry": {"type": "Point", "coordinates": [73.0696408607007, 33.6970823929144]}}, {"type": "Feature", "properties": {"stop_id": "zero_point_up", "stop_name": "Zero Point"}, "geometry": {"type": "Point", "coordinates": [73.0695450358038, 33.6972363437703]}}, {"type": "Feature", "properties": {"stop_id": "zia_masjid_down", "stop_name": "Zia Masjid"}, "geometry": {"type": "Point", "coordinates": [73.10784253, 33.63725565]}}, {"type": "Feature", "properties": {"stop_id": "zia_masjid_up", "stop_name": "Zia Masjid"}, "geometry": {"type": "Point", "coordinates": [73.10768148, 33.63662993]}}, {"type": "Feature", "properties": {"stop_id": "fire_up", "stop_name": "Fire Brigade"}, "geometry": {"type": "Point", "coordinates": [73.0737970730207, 33.6995082922684]}}, {"type": "Feature", "properties": {"stop_id": "fire_down", "stop_name": "Fire Brigade"}, "geometry": {"type": "Point", "coordinates": [73.0737970730182, 33.699246968653]}}, {"type": "Feature", "properties": {"stop_id": "cda_stop_f8a_down", "stop_name": "CDA Stop"}, "geometry": {"type": "Point", "coordinates": [73.0774430504887, 33.7011539503013]}}, {"type": "Feature", "properties": {"stop_id": "cda_stop_f8a_up", "stop_name": "CDA Stop"}, "geometry": {"type": "Point", "coordinates": [73.0773984926931, 33.7013434166414]}}, {"type": "Feature", "properties": {"stop_id": "aabpara_f8a_down", "stop_name": "Aabpara"}, "geometry": {"type": "Point", "coordinates": [73.0876189818213, 33.7065011797445]}}, {"type": "Feature", "properties": {"stop_id": "aabpara_f8a_up", "stop_name": "Aabpara"}, "geometry": {"type": "Point", "coordinates": [73.0875787486851, 33.7067109222454]}}, {"type": "Feature", "properties": {"stop_id": "fo_f8a_down", "stop_name": "Foreign Office"}, "geometry": {"type": "Point", "coordinates": [73.0998114305933, 33.7128823630602]}}, {"type": "Feature", "properties": {"stop_id": "fo_f8a_up", "stop_name": "Foreign Office"}, "geometry": {"type": "Point", "coordinates": [73.0996065635724, 33.7130005536066]}}, {"type": "Feature", "properties": {"stop_id": "high_station_fr_down", "stop_name": "High Court Metro Station"}, "geometry": {"type": "Point", "coordinates": [73.014163698673, 33.6682135117241]}}, {"type": "Feature", "properties": {"stop_id": "high_station_fr_up", "stop_name": "High Court Metro Station"}, "geometry": {"type": "Point", "coordinates": [73.0145571356885, 33.6679773693981]}}, {"type": "Feature", "properties": {"stop_id": "saddar_station", "stop_name": "Saddar Metro Station"}, "geometry": {"type": "Point", "coordinates": [73.0557668262774, 33.5935197912064]}}, {"type": "Feature", "properties": {"stop_id": "saddar_station_bus_bay", "stop_name": "Saddar Metro Station"}, "geometry": {"type": "Point", "coordinates": [73.0557668262774, 33.5935197912064]}}, {"type": "Feature", "properties": {"stop_id": "saddar_station_western_entrance", "stop_name": "Saddar Metro Station Western Entry/Exit"}, "geometry": {"type": "Point", "coordinates": [73.0558315700816, 33.593687765228]}}, {"type": "Feature", "properties": {"stop_id": "saddar_station_eastern_entrance", "stop_name": "Saddar Metro Station Eastern Entry/Exit"}, "geometry": {"type": "Point", "coordinates": [73.0560910738059, 33.5934755128911]}}, {"type": "Feature", "properties": {"stop_id": "marrir_station", "stop_name": "Marrir Metro Station"}, "geometry": {"type": "Point", "coordinates": [73.0626844053478, 33.599548167006]}}, {"type": "Feature", "properties": {"stop_id": "marrir_station_bus_bay", "stop_name": "Marrir Metro Station"}, "geometry": {"type": "Point", "coordinates": [73.0626844053478, 33.599548167006]}}, {"type": "Feature", "properties": {"stop_id": "marrir_station_western_entrance", "stop_name": "Marrir Metro Station Western Entry/Exit"}, "geometry": {"type": "Point", "coordinates": [73.0625085218591, 33.5997523161931]}}, {"type": "Feature", "properties": {"stop_id": "marrir_station_eastern_entrance", "stop_name": "Marrir Metro Station Eastern Entry/Exit"}, "geometry": {"type": "Point", "coordinates": [73.0630817793313, 33.5994309785586]}}, {"type": "Feature", "properties": {"stop_id": "liaquat_station", "stop_name": "Liaquat Bagh Metro Station"}, "geometry": {"type": "Point", "coordinates": [73.0657927158158, 33.6060450551906]}}, {"type": "Feature", "properties": {"stop_id": "liaquat_station_bus_bay", "stop_name": "Liaquat Bagh Metro Station"}, "geometry": {"type": "Point", "coordinates": [73.0657927158158, 33.6060450551906]}}, {"type": "Feature", "properties": {"stop_id": "liaquat_station_western_entrance", "stop_name": "Liaquat Metro Station Western Entry/Exit"}, "geometry": {"type": "Point", "coordinates": [73.0654406973685, 33.6060560621618]}}, {"type": "Feature", "properties": {"stop_id": "liaquat_station_eastern_entrance", "stop_name": "Liaquat Metro Station Eastern Entry/Exit"}, "geometry": {"type": "Point", "coordinates": [73.066058685314, 33.606073095497]}}, {"type": "Feature", "properties": {"stop_id": "committee_station", "stop_name": "Committee Chowk Metro Station"}, "geometry": {"type": "Point", "coordinates": [73.0650227242802, 33.613404515657]}}, {"type": "Feature", "properties": {"stop_id": "committee_station_bus_bay", "stop_name": "Committee Chowk Metro Station"}, "geometry": {"type": "Point", "coordinates": [73.0650227242802, 33.613404515657]}}, {"type": "Feature", "properties": {"stop_id": "committee_station_western_entrance", "stop_name": "Committee Metro Station Western Entry/Exit"}, "geometry": {"type": "Point", "coordinates": [73.0646862843163, 33.6133916794416]}}, {"type": "Feature", "properties": {"stop_id": "committee_station_eastern_entrance", "stop_name": "Committee Metro Station Eastern Entry/Exit"}, "geometry": {"type": "Point", "coordinates": [73.0656196441478, 33.6132472370924]}}, {"type": "Feature", "properties": {"stop_id": "waris_station", "stop_name": "Waris Khan Metro Station"}, "geometry": {"type": "Point", "coordinates": [73.0662408140511, 33.6211570495569]}}, {"type": "Feature", "properties": {"stop_id": "waris_station_bus_bay", "stop_name": "Waris Khan Metro Station"}, "geometry": {"type": "Point", "coordinates": [73.0662408140511, 33.6211570495569]}}, {"type": "Feature", "properties": {"stop_id": "waris_station_western_entrance", "stop_name": "Waris Khan Metro Station Western Entry/Exit"}, "geometry": {"type": "Point", "coordinates": [73.0661638431711, 33.6213622664989]}}, {"type": "Feature", "properties": {"stop_id": "waris_station_eastern_entrance", "stop_name": "Wasir Khan Metro Station Eastern Entry/Exit"}, "geometry": {"type": "Point", "coordinates": [73.066527279512, 33.6213026317372]}}, {"type": "Feature", "properties": {"stop_id": "chandni_station", "stop_name": "Chandni Chowk Metro Station"}, "geometry": {"type": "Point", "coordinates": [73.0719747198705, 33.6301372735755]}}, {"type": "Feature", "properties": {"stop_id": "chandni_station_bus_bay", "stop_name": "Chandni Chowk Metro Station"}, "geometry": {"type": "Point", "coordinates": [73.0719747198705, 33.6301372735755]}}, {"type": "Feature", "properties": {"stop_id": "chandni_station_western_entrance", "stop_name": "Chandi Chowk Metro Station Western Entry/Exit"}, "geometry": {"type": "Point", "coordinates": [73.0708972820155, 33.6292468054667]}}, {"type": "Feature", "properties": {"stop_id": "chandni_station_eastern_entrance", "stop_name": "Chowk Chowk Metro Station Eastern Entry/Exit"}, "geometry": {"type": "Point", "coordinates": [73.0715211964762, 33.6289849660579]}}, {"type": "Feature", "properties": {"stop_id": "rehmanabad_station", "stop_name": "Rehmanabad Metro Station"}, "geometry": {"type": "Point", "coordinates": [73.0747813183307, 33.6359264469999]}}, {"type": "Feature", "properties": {"stop_id": "rehmanabad_station_bus_bay", "stop_name": "Rehmanabad Metro Station"}, "geometry": {"type": "Point", "coordinates": [73.0747813183307, 33.6359264469999]}}, {"type": "Feature", "properties": {"stop_id": "rehmanabad_station_western_entrance", "stop_name": "Rehmanabad Metro Station Western Entry/Exit"}, "geometry": {"type": "Point", "coordinates": [73.0742756788983, 33.635932575369]}}, {"type": "Feature", "properties": {"stop_id": "rehmanabad_station_eastern_entrance", "stop_name": "Rehmanabad Metro Station Eastern Entry/Exit"}, "geometry": {"type": "Point", "coordinates": [73.0750022364103, 33.6359585705971]}}, {"type": "Feature", "properties": {"stop_id": "6th_station", "stop_name": "6th Road Metro Station"}, "geometry": {"type": "Point", "coordinates": [73.077377321026, 33.6435108720301]}}, {"type": "Feature", "properties": {"stop_id": "6th_station_bus_bay", "stop_name": "6th Road Metro Station"}, "geometry": {"type": "Point", "coordinates": [73.077377321026, 33.6435108720301]}}, {"type": "Feature", "properties": {"stop_id": "6th_station_western_entrance", "stop_name": "6th Road Metro Station Western Entry/Exit"}, "geometry": {"type": "Point", "coordinates": [73.0770011779161, 33.642789179767]}}, {"type": "Feature", "properties": {"stop_id": "6th_station_eastern_entrance", "stop_name": "6th Road Metro Station Eastern Entry/Exit"}, "geometry": {"type": "Point", "coordinates": [73.077875286722, 33.6431444418777]}}, {"type": "Feature", "properties": {"stop_id": "shamsabad_station", "stop_name": "Shamsabad Metro Station"}, "geometry": {"type": "Point", "coordinates": [73.0802329721706, 33.6503701063378]}}, {"type": "Feature", "properties": {"stop_id": "shamsabad_station_bus_bay", "stop_name": "Shamsabad Metro Station"}, "geometry": {"type": "Point", "coordinates": [73.0802329721706, 33.6503701063378]}}, {"type": "Feature", "properties": {"stop_id": "shamsabad_station_western_entrance", "stop_name": "Shamsabad Metro Station Western Entry/Exit"}, "geometry": {"type": "Point", "coordinates": [73.0798818408067, 33.6501413943532]}}, {"type": "Feature", "properties": {"stop_id": "shamsabad_station_eastern_entrance", "stop_name": "Shamsbad Metro Station Eastern Entry/Exit"}, "geometry": {"type": "Point", "coordinates": [73.0805284434109, 33.6499470717226]}}, {"type": "Feature", "properties": {"stop_id": "faizabad_station", "stop_name": "Faizabad Metro Station"}, "geometry": {"type": "Point", "coordinates": [73.082795864888, 33.6612664577087]}}, {"type": "Feature", "properties": {"stop_id": "faizabad_station_bus_bay", "stop_name": "Faizabad Metro Station"}, "geometry": {"type": "Point", "coordinates": [73.082795864888, 33.6612664577087]}}, {"type": "Feature", "properties": {"stop_id": "faizabad_station_i8_entrance", "stop_name": "Faizabad Metro Station I-8 Entry/Exit"}, "geometry": {"type": "Point", "coordinates": [73.0823277198949, 33.6620208968938]}}, {"type": "Feature", "properties": {"stop_id": "faizabad_station_southern_entrance", "stop_name": "Faizabad Metro Station Southern Entry/Exit"}, "geometry": {"type": "Point", "coordinates": [73.0830633215855, 33.6620191475876]}}, {"type": "Feature", "properties": {"stop_id": "ijp_station", "stop_name": "IJP Metro Staton"}, "geometry": {"type": "Point", "coordinates": [73.0720093785699, 33.6559051745513]}}, {"type": "Feature", "properties": {"stop_id": "ijp_station_bus_bay", "stop_name": "IJP Metro Station"}, "geometry": {"type": "Point", "coordinates": [73.0720093785699, 33.6559051745513]}}, {"type": "Feature", "properties": {"stop_id": "ijp_station_i8_entrance", "stop_name": "IJP Metro Station I-8 Entry/Exit"}, "geometry": {"type": "Point", "coordinates": [73.0716546537196, 33.6565053721619]}}, {"type": "Feature", "properties": {"stop_id": "saddar_station_southern_entrance", "stop_name": "IJP Metro Station Southern Entry/Exit"}, "geometry": {"type": "Point", "coordinates": [73.0720406964844, 33.6559333004653]}}, {"type": "Feature", "properties": {"stop_id": "potohar_station", "stop_name": "Potohar Metro Station"}, "geometry": {"type": "Point", "coordinates": [73.065383538273, 33.6608758630794]}}, {"type": "Feature", "properties": {"stop_id": "potohar_station_bus_bay", "stop_name": "Potohar Metro Station"}, "geometry": {"type": "Point", "coordinates": [73.065383538273, 33.6608758630794]}}, {"type": "Feature", "properties": {"stop_id": "potohar_station_i9_entrance", "stop_name": "Potohar Metro Station I-9 Entry/Exit"}, "geometry": {"type": "Point", "coordinates": [73.0645920598563, 33.6604719927708]}}, {"type": "Feature", "properties": {"stop_id": "potohar_station_i8_entrance", "stop_name": "Potohar Metro Station I-8 Entry/Exit"}, "geometry": {"type": "Point", "coordinates": [73.0662206960522, 33.6611959313788]}}, {"type": "Feature", "properties": {"stop_id": "khayaban_station", "stop_name": "Khayaban-e-Johar Metro Station"}, "geometry": {"type": "Point", "coordinates": [73.0591692531991, 33.6691787397915]}}, {"type": "Feature", "properties": {"stop_id": "khayaban_station_bus_bay", "stop_name": "Khayaban-e-Johar Metro Station"}, "geometry": {"type": "Point", "coordinates": [73.0591692531991, 33.6691787397915]}}, {"type": "Feature", "properties": {"stop_id": "khayaban_station_i9_entrance", "stop_name": "Khayaban-e-Johar Metro Station I-9 Entry/Exit"}, "geometry": {"type": "Point", "coordinates": [73.0579879685309, 33.6691907033076]}}, {"type": "Feature", "properties": {"stop_id": "khayaban_station_i8_entrance", "stop_name": "Khayaban-e-Johar Metro Station I-8 Entry/Exit"}, "geometry": {"type": "Point", "coordinates": [73.0596908032605, 33.6699135726494]}}, {"type": "Feature", "properties": {"stop_id": "faiz_station", "stop_name": "Faiz Ahmad Faiz Metro Station"}, "geometry": {"type": "Point", "coordinates": [73.0541546925526, 33.6758976705507]}}, {"type": "Feature", "properties": {"stop_id": "faiz_station_bus_bay_1", "stop_name": "Faiz Ahmad Faiz Metro Station Bay 1"}, "geometry": {"type": "Point", "coordinates": [73.0541546925526, 33.6758976705507]}}, {"type": "Feature", "properties": {"stop_id": "faiz_station_bus_bay_3", "stop_name": "Faiz Ahmad Faiz Metro Station Bay 3"}, "geometry": {"type": "Point", "coordinates": [73.0546453368381, 33.6754610403929]}}, {"type": "Feature", "properties": {"stop_id": "faiz_station_h9_entrance", "stop_name": "Faiz Ahmad Faiz Metro Station H-9 Entry/Exit"}, "geometry": {"type": "Point", "coordinates": [73.0534836923613, 33.6752253100037]}}, {"type": "Feature", "properties": {"stop_id": "faiz_station_h8_entrance", "stop_name": "Faiz Ahmad Faiz Metro Station H-8 Entry/Exit"}, "geometry": {"type": "Point", "coordinates": [73.0550482938661, 33.6760476127558]}}, {"type": "Feature", "properties": {"stop_id": "kashmir_station", "stop_name": "Kashmir Highway Metro Station"}, "geometry": {"type": "Point", "coordinates": [73.0478382641737, 33.6841546936715]}}, {"type": "Feature", "properties": {"stop_id": "kashmir_station_bus_bay", "stop_name": "Kashmir Highway Metro Station"}, "geometry": {"type": "Point", "coordinates": [73.0478382641737, 33.6841546936715]}}, {"type": "Feature", "properties": {"stop_id": "kashmir_station_g9_entrance", "stop_name": "Kashmir Highway Metro Station G-9 Entry/Exit"}, "geometry": {"type": "Point", "coordinates": [73.0459155141122, 33.6851720992526]}}, {"type": "Feature", "properties": {"stop_id": "kashmir_station_h9_entrance", "stop_name": "Kashmir Highway Metro Station H-9 Entry/Exit"}, "geometry": {"type": "Point", "coordinates": [73.0474649331073, 33.6825051250982]}}, {"type": "Feature", "properties": {"stop_id": "kashmir_station_g8_entrance", "stop_name": "Kashmir Highway Metro Station G-8 Entry/Exit"}, "geometry": {"type": "Point", "coordinates": [73.0476357999812, 33.6860808588603]}}, {"type": "Feature", "properties": {"stop_id": "kashmir_station_h8_entrance", "stop_name": "Kashmir Highway Metro Station H-8 Entry/Exit"}, "geometry": {"type": "Point", "coordinates": [73.0499018542993, 33.6828805634752]}}, {"type": "Feature", "properties": {"stop_id": "chaman_station", "stop_name": "Chaman Metro Station"}, "geometry": {"type": "Point", "coordinates": [73.0427436773507, 33.6901027526327]}}, {"type": "Feature", "properties": {"stop_id": "chaman_station_bus_bay", "stop_name": "Chaman Metro Station"}, "geometry": {"type": "Point", "coordinates": [73.0427436773507, 33.6901027526327]}}, {"type": "Feature", "properties": {"stop_id": "chaman_station_g9_entrance", "stop_name": "Chaman Metro Station G-9 Entry/Exit"}, "geometry": {"type": "Point", "coordinates": [73.0422197412584, 33.6902332682364]}}, {"type": "Feature", "properties": {"stop_id": "chaman_station_g8_entrance", "stop_name": "Chaman Metro Station G-8 Entry/Exit"}, "geometry": {"type": "Point", "coordinates": [73.0436180752061, 33.691131859604]}}, {"type": "Feature", "properties": {"stop_id": "ibn_station", "stop_name": "Ibn-e-Sina Metro Station"}, "geometry": {"type": "Point", "coordinates": [73.0383392294353, 33.6960511424756]}}, {"type": "Feature", "properties": {"stop_id": "ibn_station_bus_bay", "stop_name": "Ibn-e-Sina Metro Station"}, "geometry": {"type": "Point", "coordinates": [73.0383392294353, 33.6960511424756]}}, {"type": "Feature", "properties": {"stop_id": "ibn_station_g9_entrance", "stop_name": "Ibn-e-Sina Metro Station G-9 Entry/Exit"}, "geometry": {"type": "Point", "coordinates": [73.0377482787131, 33.696219430549]}}, {"type": "Feature", "properties": {"stop_id": "ibn_station_g8_entrance", "stop_name": "Ibn-e-Sina Metro Station G-8 Entry/Exit"}, "geometry": {"type": "Point", "coordinates": [73.0395851131224, 33.6967272765927]}}, {"type": "Feature", "properties": {"stop_id": "katchery_station", "stop_name": "Katchery Metro Station"}, "geometry": {"type": "Point", "coordinates": [73.0413135889272, 33.7023006740021]}}, {"type": "Feature", "properties": {"stop_id": "katchery_station_bus_bay", "stop_name": "Katchery Metro Station"}, "geometry": {"type": "Point", "coordinates": [73.0413135889272, 33.7023006740021]}}, {"type": "Feature", "properties": {"stop_id": "katchery_station_f8_entrance", "stop_name": "Katchery Metro Station F-8 Entry/Exit"}, "geometry": {"type": "Point", "coordinates": [73.0411329347199, 33.7024801736737]}}, {"type": "Feature", "properties": {"stop_id": "katchery_station_g8_entrance", "stop_name": "Katchery Metro Station G-8 Entry/Exit"}, "geometry": {"type": "Point", "coordinates": [73.0414948724875, 33.7019816980287]}}, {"type": "Feature", "properties": {"stop_id": "pims_station", "stop_name": "PIMS Metro Station"}, "geometry": {"type": "Point", "coordinates": [73.0477700297317, 33.7056441909644]}}, {"type": "Feature", "properties": {"stop_id": "pims_station_bus_bay", "stop_name": "PIMS Metro Station"}, "geometry": {"type": "Point", "coordinates": [73.0477700297317, 33.7056441909644]}}, {"type": "Feature", "properties": {"stop_id": "pims_station_f8_entrance", "stop_name": "PIMS Metro Station F-8 Entry/Exit"}, "geometry": {"type": "Point", "coordinates": [73.0478704339241, 33.7060058277123]}}, {"type": "Feature", "properties": {"stop_id": "pims_station_g8_entrance", "stop_name": "PIMS Metro Station G-8 Entry/Exit"}, "geometry": {"type": "Point", "coordinates": [73.048224779834, 33.7055253587528]}}, {"type": "Feature", "properties": {"stop_id": "stock_station", "stop_name": "Stock Exchange Metro Station"}, "geometry": {"type": "Point", "coordinates": [73.0593129582264, 33.7117189261281]}}, {"type": "Feature", "properties": {"stop_id": "stock_station_bus_bay", "stop_name": "Stock Exchange Metro Station"}, "geometry": {"type": "Point", "coordinates": [73.0593129582264, 33.7117189261281]}}, {"type": "Feature", "properties": {"stop_id": "stock_station_f7_entrance", "stop_name": "Stock Exchange Metro Station F-7 Entry/Exit"}, "geometry": {"type": "Point", "coordinates": [73.0598421824139, 33.7122474344517]}}, {"type": "Feature", "properties": {"stop_id": "stock_station_g7_entrance", "stop_name": "Stock Exchange Metro Station G-7 Entry/Exit"}, "geometry": {"type": "Point", "coordinates": [73.0601968510041, 33.7118141727574]}}, {"type": "Feature", "properties": {"stop_id": "7th_station", "stop_name": "7th Avenue Metro Station"}, "geometry": {"type": "Point", "coordinates": [73.0707067899252, 33.7176907019818]}}, {"type": "Feature", "properties": {"stop_id": "7th_station_bus_bay", "stop_name": "7th Avenue Metro Station"}, "geometry": {"type": "Point", "coordinates": [73.0707067899252, 33.7176907019818]}}, {"type": "Feature", "properties": {"stop_id": "7th_station_f7_entrance", "stop_name": "7th Avenue Metro Station F-7 Entry/Exit"}, "geometry": {"type": "Point", "coordinates": [73.0700306546148, 33.7176671018743]}}, {"type": "Feature", "properties": {"stop_id": "7th_station_g7_entrance", "stop_name": "7th Avenue Metro Station G-7 Entry/Exit"}, "geometry": {"type": "Point", "coordinates": [73.0704500313397, 33.7171234933226]}}, {"type": "Feature", "properties": {"stop_id": "7th_station_f6_entrance", "stop_name": "7th Avenue Metro Station F-6 Entry/Exit"}, "geometry": {"type": "Point", "coordinates": [73.0724423928605, 33.7189409169982]}}, {"type": "Feature", "properties": {"stop_id": "7th_station_g6_entrance", "stop_name": "7th Avenue Metro Station G-6 Entry/Exit"}, "geometry": {"type": "Point", "coordinates": [73.0728674660164, 33.7183850202206]}}, {"type": "Feature", "properties": {"stop_id": "shaheed_station", "stop_name": "Shaheed-e-Millat Metro Station"}, "geometry": {"type": "Point", "coordinates": [73.0783827436297, 33.7217427113435]}}, {"type": "Feature", "properties": {"stop_id": "shaheed_station_bus_bay", "stop_name": "Shaheed-e-Millat Metro Station"}, "geometry": {"type": "Point", "coordinates": [73.0783827436297, 33.7217427113435]}}, {"type": "Feature", "properties": {"stop_id": "shaheed_station_f6_entrance", "stop_name": "Shaheed-e-Millat Metro Station F-6 Entry/Exit"}, "geometry": {"type": "Point", "coordinates": [73.0781625741154, 33.7218365298301]}}, {"type": "Feature", "properties": {"stop_id": "shaheed_station_g6_entrance", "stop_name": "Shaheed-e-Millat Metro Station G-6 Entry/Exit"}, "geometry": {"type": "Point", "coordinates": [73.0785039051983, 33.721385629291]}}, {"type": "Feature", "properties": {"stop_id": "parade_station", "stop_name": "Parade Ground Metro Station"}, "geometry": {"type": "Point", "coordinates": [73.0843703416346, 33.7248268507192]}}, {"type": "Feature", "properties": {"stop_id": "parade_station_bus_bay", "stop_name": "Parade Ground Metro Station"}, "geometry": {"type": "Point", "coordinates": [73.0843703416346, 33.7248268507192]}}, {"type": "Feature", "properties": {"stop_id": "parade_station_f6_entrance", "stop_name": "Parade Ground Metro Station F-6 Entry/Exit"}, "geometry": {"type": "Point", "coordinates": [73.0843393462545, 33.7251025952051]}}, {"type": "Feature", "properties": {"stop_id": "parade_station_g6_entrance", "stop_name": "Parade Ground Metro Station G-6 Entry/Exit"}, "geometry": {"type": "Point", "coordinates": [73.0847100225445, 33.7245977598117]}}, {"type": "Feature", "properties": {"stop_id": "secretariat_station", "stop_name": "Secretariat Metro Station"}, "geometry": {"type": "Point", "coordinates": [73.092097020256, 33.7352158692743]}}, {"type": "Feature", "properties": {"stop_id": "secretariat_station_bus_bay", "stop_name": "Secretariat Metro Station"}, "geometry": {"type": "Point", "coordinates": [73.092097020256, 33.7352158692743]}}, {"type": "Feature", "properties": {"stop_id": "secretariat_station_entrance", "stop_name": "Secretariat Metro Station Entry/Exit"}, "geometry": {"type": "Point", "coordinates": [73.0920646962575, 33.7352792401195]}}, {"type": "Feature", "properties": {"stop_id": "nha_station", "stop_name": "NHA Metro Station"}, "geometry": {"type": "Point", "coordinates": [73.0347577635593, 33.6772992231509]}}, {"type": "Feature", "properties": {"stop_id": "nha_station_bus_bay", "stop_name": "NHA Metro Station"}, "geometry": {"type": "Point", "coordinates": [73.0347577635593, 33.6772992231509]}}, {"type": "Feature", "properties": {"stop_id": "nha_station_h9_entrance", "stop_name": "NHA Metro Station H-9 Entry/Exit"}, "geometry": {"type": "Point", "coordinates": [73.0345339428255, 33.6770054515646]}}, {"type": "Feature", "properties": {"stop_id": "nha_station_g9_entrance", "stop_name": "NHA Metro Station G-9 Entry/Exit"}, "geometry": {"type": "Point", "coordinates": [73.03401, 33.67783]}}, {"type": "Feature", "properties": {"stop_id": "high_station", "stop_name": "High Court Metro Station"}, "geometry": {"type": "Point", "coordinates": [73.0153509729867, 33.6671663831972]}}, {"type": "Feature", "properties": {"stop_id": "high_station_bus_bay", "stop_name": "High Court Metro Station"}, "geometry": {"type": "Point", "coordinates": [73.0153509729867, 33.6671663831972]}}, {"type": "Feature", "properties": {"stop_id": "high_station_h10_entrance", "stop_name": "High Court Metro Station H-10 Entry/Exit"}, "geometry": {"type": "Point", "coordinates": [73.0158160566767, 33.6672167677714]}}, {"type": "Feature", "properties": {"stop_id": "high_station_g10_entrance", "stop_name": "High Court Metro Station G-10 Entry/Exit"}, "geometry": {"type": "Point", "coordinates": [73.0145431960029, 33.667636971572]}}, {"type": "Feature", "properties": {"stop_id": "police_found_station", "stop_name": "Police Foundation Metro Station"}, "geometry": {"type": "Point", "coordinates": [73.0073687244158, 33.6629914607865]}}, {"type": "Feature", "properties": {"stop_id": "police_found_station_bus_bay", "stop_name": "Police Foundation Metro Station"}, "geometry": {"type": "Point", "coordinates": [73.0073687244158, 33.6629914607865]}}, {"type": "Feature", "properties": {"stop_id": "police_found_station_h11_entrance", "stop_name": "Police Foundation Metro Station H-11 Entry/Exit"}, "geometry": {"type": "Point", "coordinates": [73.0071451901765, 33.6624427564776]}}, {"type": "Feature", "properties": {"stop_id": "police_found_station_g11_entrance", "stop_name": "Police Foundation Metro Station G-11 Entry/Exit"}, "geometry": {"type": "Point", "coordinates": [73.0068329164853, 33.6635886610761]}}, {"type": "Feature", "properties": {"stop_id": "nust_station", "stop_name": "NUST Metro Station"}, "geometry": {"type": "Point", "coordinates": [72.9935239037393, 33.6557229694265]}}, {"type": "Feature", "properties": {"stop_id": "nust_station_bus_bay", "stop_name": "NUST Metro Station"}, "geometry": {"type": "Point", "coordinates": [72.9935239037393, 33.6557229694265]}}, {"type": "Feature", "properties": {"stop_id": "nust_station_h11_entrance", "stop_name": "NUST Metro Station H-11 Entry/Exit"}, "geometry": {"type": "Point", "coordinates": [72.9940878386516, 33.6558209960467]}}, {"type": "Feature", "properties": {"stop_id": "nust_station_g11_entrance", "stop_name": "NUST Metro Station G-11 Entry/Exit"}, "geometry": {"type": "Point", "coordinates": [72.9927830677308, 33.656230780951]}}, {"type": "Feature", "properties": {"stop_id": "g13_station", "stop_name": "G-13 Metro Station"}, "geometry": {"type": "Point", "coordinates": [72.9819067283348, 33.6496298946297]}}, {"type": "Feature", "properties": {"stop_id": "g13_station_bay", "stop_name": "G-13 Metro Station"}, "geometry": {"type": "Point", "coordinates": [72.9819067283348, 33.6496298946297]}}, {"type": "Feature", "properties": {"stop_id": "g13_station_h13_entrance", "stop_name": "G-13 Metro Station H-13 Entry/Exit"}, "geometry": {"type": "Point", "coordinates": [72.9815727429053, 33.6492538832716]}}, {"type": "Feature", "properties": {"stop_id": "g13_station_g13_entrance", "stop_name": "G-13 Metro Station G-13 Entry/Exit"}, "geometry": {"type": "Point", "coordinates": [72.9809794034133, 33.6500363090603]}}, {"type": "Feature", "properties": {"stop_id": "golra_station", "stop_name": "Golra Morr Metro Station"}, "geometry": {"type": "Point", "coordinates": [72.9616840511331, 33.6406542216234]}}, {"type": "Feature", "properties": {"stop_id": "golra_station_bus_bay", "stop_name": "Golra Morr Metro Station"}, "geometry": {"type": "Point", "coordinates": [72.9616840511331, 33.6406542216234]}}, {"type": "Feature", "properties": {"stop_id": "golra_station_g13_entrance", "stop_name": "Golra Morr G-13 Entry/Exit"}, "geometry": {"type": "Point", "coordinates": [72.962252059534, 33.6417003086395]}}, {"type": "Feature", "properties": {"stop_id": "n5_station", "stop_name": "N-5 Metro Station"}, "geometry": {"type": "Point", "coordinates": [72.9447060936352, 33.6320183345692]}}, {"type": "Feature", "properties": {"stop_id": "n5_station_bay_1", "stop_name": "N-5 Metro Station"}, "geometry": {"type": "Point", "coordinates": [72.9447060936352, 33.6320183345692]}}, {"type": "Feature", "properties": {"stop_id": "n5_station_bay_2", "stop_name": "N-5 Metro Station"}, "geometry": {"type": "Point", "coordinates": [72.9447060936352, 33.6320183345692]}}, {"type": "Feature", "properties": {"stop_id": "n5_station_south_entrance", "stop_name": "N-5 Southern Entry/Exit"}, "geometry": {"type": "Point", "coordinates": [72.9451786936659, 33.6313888021433]}}, {"type": "Feature", "properties": {"stop_id": "n5_station_g14_entrance", "stop_name": "N-5 G-14 Entry/Exit"}, "geometry": {"type": "Point", "coordinates": [72.9446677469644, 33.6324081704292]}}, {"type": "Feature", "properties": {"stop_id": "airport_station", "stop_name": "Airport"}, "geometry": {"type": "Point", "coordinates": [72.8374259751504, 33.5560088274497]}}, {"type": "Feature", "properties": {"stop_id": "airport_station_bus_bay", "stop_name": "Airport"}, "geometry": {"type": "Point", "coordinates": [72.8374259751504, 33.5560088274497]}}, {"type": "Feature", "properties": {"stop_id": "airport_station_south_entrance", "stop_name": "Airport Southern Entry/Exit"}, "geometry": {"type": "Point", "coordinates": [72.8373642940111, 33.555967896207]}}, {"type": "Feature", "properties": {"stop_id": "airport_station_north_entrance", "stop_name": "Airport Northern Entry/Exit"}, "geometry": {"type": "Point", "coordinates": [72.8374605352339, 33.5560207760155]}}, {"type": "Feature", "properties": {"stop_id": "golra_mor_up", "stop_name": "Golra Mor"}, "geometry": {"type": "Point", "coordinates": [72.969351, 33.625307]}}, {"type": "Feature", "properties": {"stop_id": "golra_mor_down", "stop_name": "Golra Mor"}, "geometry": {"type": "Point", "coordinates": [72.9707828, 33.6251905]}}, {"type": "Feature", "properties": {"stop_id": "parveen_up", "stop_name": "Parveen Shakir Road"}, "geometry": {"type": "Point", "coordinates": [73.044736285448, 33.7227043519138]}}, {"type": "Feature", "properties": {"stop_id": "parveen_down", "stop_name": "Parveen Shakir Road"}, "geometry": {"type": "Point", "coordinates": [73.0449062974041, 33.7225965180094]}}, {"type": "Feature", "properties": {"stop_id": "kohsar_up", "stop_name": "Kohsar Road"}, "geometry": {"type": "Point", "coordinates": [73.0528902561637, 33.7270035255695]}}, {"type": "Feature", "properties": {"stop_id": "kohsar_down", "stop_name": "Kohsar Road"}, "geometry": {"type": "Point", "coordinates": [73.0530251505787, 33.7268157279111]}}, {"type": "Feature", "properties": {"stop_id": "f6_2_up", "stop_name": "F-6/2"}, "geometry": {"type": "Point", "coordinates": [73.0664725063057, 33.7341041253947]}}, {"type": "Feature", "properties": {"stop_id": "f6_2_down", "stop_name": "F-6/2"}, "geometry": {"type": "Point", "coordinates": [73.0666027000041, 33.7339525442149]}}, {"type": "Feature", "properties": {"stop_id": "saidpur_up", "stop_name": "Saidpur Village"}, "geometry": {"type": "Point", "coordinates": [73.0668382795358, 33.7407232703516]}}, {"type": "Feature", "properties": {"stop_id": "saidpur_down", "stop_name": "Saidpur Village"}, "geometry": {"type": "Point", "coordinates": [73.0672093191581, 33.7406315417287]}}]}