{"type": "FeatureCollection", "features": [{"type": "Feature", "properties": {"shape_id": "fr_3A_0_T01"}, "geometry": {"type": "LineString", "coordinates": [[73.0521991, 33.70614835], [73.04834775, 33.70565102], [73.03934848, 33.70880773], [73.03716279, 33.71173404], [73.02849518, 33.70974193], [73.02662097, 33.71221788], [73.03121303, 33.71559128], [73.03744306, 33.71886635], [73.03980805, 33.72740136], [73.044736285448, 33.7227043519138], [73.0528902561637, 33.7270035255695], [73.0627420035013, 33.7321543588857], [73.0664725063057, 33.7341041253947], [73.0668382795358, 33.7407232703516]]}}, {"type": "Feature", "properties": {"shape_id": "fr_3A_1_T01"}, "geometry": {"type": "LineString", "coordinates": [[73.0672093191581, 33.7406315417287], [73.0666027000041, 33.7339525442149], [73.0629182167957, 33.7319983138638], [73.0530251505787, 33.7268157279111], [73.0449062974041, 33.7225965180094], [73.04010509, 33.72739822], [73.03744274, 33.71866813], [73.03164145, 33.71560256], [73.02704116, 33.71223293], [73.02893835, 33.70971001], [73.03731216, 33.71185552], [73.03960237, 33.70889105], [73.04771298, 33.70576574], [73.05228287, 33.70595731]]}}, {"type": "Feature", "properties": {"shape_id": "fr_4_0_T01"}, "geometry": {"type": "LineString", "coordinates": [[73.0521991, 33.70614835], [73.05558474, 33.70536521], [73.05981233, 33.69983743], [73.06194488, 33.7003844], [73.06640195, 33.70273946], [73.06679813, 33.70606458], [73.07046677, 33.70693208], [73.07493847, 33.70926772], [73.08078781, 33.7129049], [73.08495023, 33.71472406], [73.08913293, 33.7092429], [73.09183731, 33.70989634], [73.08734953, 33.71594497], [73.09057312, 33.71811805], [73.09529683, 33.72023533], [73.09846991, 33.71604884], [73.10029712, 33.71360706], [73.10373115, 33.71835195], [73.10045655, 33.7226287], [73.10270599, 33.72460724], [73.10828942, 33.72753441], [73.11054991, 33.73101879], [73.10849341, 33.7337182], [73.10821799, 33.7382182], [73.10944502, 33.74355542]]}}, {"type": "Feature", "properties": {"shape_id": "fr_4_1_T01"}, "geometry": {"type": "LineString", "coordinates": [[73.10964209, 33.74348873], [73.1083125, 33.73820534], [73.10873332, 33.73374613], [73.11076675, 33.73102428], [73.10782915, 33.72709415], [73.10272605, 33.72441324], [73.10086779, 33.72274078], [73.10398822, 33.71855911], [73.09981203, 33.71315881], [73.09834316, 33.71605097], [73.09473076, 33.72028927], [73.09060449, 33.71804943], [73.08747806, 33.71615995], [73.091777, 33.71005416], [73.08886461, 33.70910127], [73.08448705, 33.71467638], [73.08016275, 33.71237987], [73.07496339, 33.70904802], [73.07032694, 33.70675689], [73.06695692, 33.70617282], [73.0664906, 33.70256978], [73.06213692, 33.70022305], [73.05961959, 33.69980096], [73.05555599, 33.70527954], [73.05228287, 33.70595731]]}}, {"type": "Feature", "properties": {"shape_id": "fr_6_0_T01"}, "geometry": {"type": "LineString", "coordinates": [[73.0521991, 33.70614835], [73.04339413, 33.70111706], [73.03936631, 33.69691934], [73.03706184, 33.68902948], [73.03459012, 33.68478325], [73.03003559, 33.68969869], [73.0362464, 33.69778261], [73.02849518, 33.70974193], [73.02662097, 33.71221788], [73.02137838, 33.7101905], [73.01683258, 33.70779317], [73.00923609, 33.70378705], [73.01242546, 33.69787147], [73.0122906, 33.69407323], [73.0060487, 33.69082443], [72.99695637, 33.68673825], [72.99176385, 33.68442868], [72.99170849, 33.6843344], [72.9889853, 33.6825768], [72.98392493, 33.68658982], [72.98183643, 33.68939565]]}}, {"type": "Feature", "properties": {"shape_id": "fr_6_1_T01"}, "geometry": {"type": "LineString", "coordinates": [[72.98222785, 33.68930156], [72.98436027, 33.68638251], [72.98812477, 33.68294111], [72.99141149, 33.68430188], [72.99394221, 33.68609191], [72.99682048, 33.68695433], [73.00597121, 33.6909654], [73.0120975, 33.69417227], [73.01228789, 33.69768448], [73.00840068, 33.70283511], [73.01622087, 33.70772927], [73.02181217, 33.71065694], [73.02704116, 33.71223293], [73.02893835, 33.70971001], [73.03637417, 33.69758956], [73.0302745, 33.68986808], [73.03392013, 33.68491765], [73.03709775, 33.68926726], [73.0393243, 33.69686278], [73.04314492, 33.7013921], [73.05228287, 33.70595731]]}}, {"type": "Feature", "properties": {"shape_id": "fr_7_0_T01"}, "geometry": {"type": "LineString", "coordinates": [[73.0521991, 33.70614835], [73.05558474, 33.70536521], [73.05373324, 33.69842279], [73.048884, 33.69964837], [73.04743124, 33.69893057], [73.04783135, 33.69543927], [73.0437072, 33.69165251], [73.03706184, 33.68902948], [73.03464442, 33.68868004], [73.0302745, 33.68986808], [73.02514173, 33.68428135], [73.01904928, 33.68117359], [73.01542111, 33.67715055], [73.01255342, 33.67549503], [73.01001675, 33.67417803], [73.00745474, 33.67283266], [73.00289061, 33.67176007], [72.99816429, 33.6696951], [72.98982022, 33.66632818], [72.99270699, 33.65694008], [72.99718386, 33.65929611], [73.00217684, 33.66196262], [73.0044502731776, 33.6629000829181], [73.0048, 33.6625]]}}, {"type": "Feature", "properties": {"shape_id": "fr_7_1_T01"}, "geometry": {"type": "LineString", "coordinates": [[73.0043460214925, 33.6631183224687], [73.00243329, 33.66183905], [72.99694365, 33.65922891], [72.99287088, 33.65684931], [72.9897919, 33.66654822], [72.99787954, 33.66977676], [73.00293029, 33.67193103], [73.00724343, 33.67291594], [73.00985673, 33.67430953], [73.01240193, 33.67564438], [73.01443929, 33.67670728], [73.01834874, 33.68098078], [73.0249928, 33.6844351], [73.03003559, 33.68969869], [73.03483972, 33.68864969], [73.03709775, 33.68926726], [73.04366551, 33.6919068], [73.04775758, 33.69561578], [73.04746434, 33.69912486], [73.04904059, 33.69994662], [73.05317194, 33.69834094], [73.05555599, 33.70527954], [73.05228287, 33.70595731]]}}, {"type": "Feature", "properties": {"shape_id": "blue_0"}, "geometry": {"type": "LineString", "coordinates": [[73.051881, 33.706009], [73.054165, 33.707185], [73.054423, 33.707004], [73.054418, 33.707003], [73.056143, 33.704624], [73.058473, 33.701482], [73.058738, 33.701284], [73.059086, 33.701149], [73.059134, 33.700877], [73.059162, 33.700664], [73.060661, 33.698709], [73.062064, 33.696934], [73.06236, 33.696344], [73.062456, 33.696131], [73.061933, 33.694137], [73.061603, 33.693357], [73.061365, 33.692932], [73.060877, 33.692496], [73.060357, 33.692195], [73.060444, 33.691987], [73.060722, 33.691782], [73.061058, 33.691719], [73.066335, 33.694572], [73.066671, 33.695094], [73.066649, 33.695495], [73.066452, 33.695807], [73.065865, 33.69609], [73.065339, 33.695999], [73.064801, 33.695678], [73.064636, 33.695003], [73.064935, 33.694402], [73.098582, 33.649495], [73.136756, 33.598445], [73.137274, 33.597968], [73.13788, 33.597942], [73.138473, 33.598203], [73.138598, 33.598458], [73.13845, 33.598506], [73.138319, 33.598505], [73.137992, 33.598357]]}}, {"type": "Feature", "properties": {"shape_id": "blue_1"}, "geometry": {"type": "LineString", "coordinates": [[73.137993, 33.598575], [73.138472, 33.598579], [73.138667, 33.598576], [73.138995, 33.598167], [73.139693, 33.597229], [73.139834, 33.596706], [73.140297, 33.596076], [73.14025, 33.595911], [73.139673, 33.595689], [73.138123, 33.595008], [73.137982, 33.59474], [73.137973, 33.594722], [73.13808, 33.594338], [73.138438, 33.594133], [73.138717, 33.594149], [73.138975, 33.594263], [73.139134, 33.594461], [73.139134, 33.594751], [73.138001, 33.596294], [73.064366, 33.694621], [73.062487, 33.697167], [73.054675, 33.707455], [73.054449, 33.707549], [73.054258, 33.707413], [73.054278, 33.707206], [73.054345, 33.707096], [73.054761, 33.706504], [73.054867, 33.706325], [73.054782, 33.706294], [73.054715, 33.706381], [73.054278, 33.706963], [73.054263, 33.706969], [73.054007, 33.706906], [73.051983, 33.705871]]}}, {"type": "Feature", "properties": {"shape_id": "fr_14_0"}, "geometry": {"type": "LineString", "coordinates": [[73.165586, 33.73536], [73.16563, 33.735085], [73.165656, 33.734874], [73.164466, 33.734919], [73.163204, 33.734793], [73.162027, 33.73472], [73.159737, 33.734611], [73.159363, 33.734568], [73.156656, 33.734338], [73.155868, 33.734287], [73.153414, 33.733731], [73.15199, 33.733295], [73.150876, 33.73286], [73.148853, 33.731668], [73.145039, 33.729574], [73.142657, 33.728111], [73.1392, 33.725821], [73.137941, 33.72471], [73.136675, 33.723614], [73.136142, 33.72314], [73.134771, 33.72185], [73.134045, 33.721221], [73.132873, 33.720952], [73.13114, 33.720838], [73.129082, 33.720334], [73.127839, 33.720058], [73.127024, 33.719728], [73.124644, 33.718547], [73.121912, 33.718701], [73.120348, 33.718788], [73.118742, 33.718056], [73.114749, 33.715774], [73.111709, 33.713851], [73.106825, 33.711497], [73.106194, 33.710075], [73.106272, 33.707948], [73.106698, 33.706122], [73.108638, 33.702504], [73.110045, 33.699569], [73.110595, 33.69831], [73.110664, 33.697517], [73.11065, 33.696864], [73.110386, 33.693388], [73.110366, 33.689931], [73.11021, 33.688918], [73.109149, 33.68756], [73.106667, 33.685133], [73.104038, 33.682582], [73.102923, 33.681924], [73.096565, 33.678326], [73.096111, 33.677831], [73.0934, 33.672093], [73.092754, 33.670917], [73.090412, 33.668291], [73.088901, 33.666553], [73.08903, 33.665818], [73.089217, 33.663443], [73.089427, 33.661847], [73.089964, 33.66091], [73.094293, 33.655191], [73.096509, 33.652382], [73.096916, 33.652251], [73.097277, 33.652333], [73.097487, 33.652587], [73.097433, 33.653115], [73.096985, 33.653353], [73.096495, 33.65325], [73.096054, 33.653074], [73.095025, 33.652498], [73.09494, 33.652115], [73.095117, 33.651739], [73.09539, 33.65145], [73.095801, 33.651323], [73.096198, 33.651508], [73.096235, 33.651864], [73.095962, 33.652401], [73.095014, 33.653713], [73.090595, 33.659651], [73.089054, 33.661465], [73.087282, 33.662495], [73.085948, 33.663305], [73.085451, 33.663436], [73.084593, 33.66301], [73.082227, 33.661564], [73.071827, 33.655873], [73.067714, 33.653744], [73.063849, 33.651655], [73.062253, 33.650877], [73.058027, 33.648675], [73.055653, 33.64755], [73.054167, 33.646868], [73.052591, 33.646042], [73.050946, 33.64505], [73.049692, 33.644305], [73.044241, 33.641367], [73.039901, 33.639139], [73.03319, 33.63563], [73.032017, 33.634903], [73.031781, 33.63473], [73.031511, 33.634502], [73.031211, 33.634427]]}}, {"type": "Feature", "properties": {"shape_id": "fr_14_1"}, "geometry": {"type": "LineString", "coordinates": [[73.032592, 33.635689], [73.033229, 33.63586], [73.034542, 33.636505], [73.038149, 33.63839], [73.039022, 33.638871], [73.040007, 33.639424], [73.042137, 33.640489], [73.047515, 33.643359], [73.049768, 33.644614], [73.050743, 33.645207], [73.051918, 33.645879], [73.054106, 33.646972], [73.054784, 33.647348], [73.056132, 33.647983], [73.0575, 33.648594], [73.059426, 33.649554], [73.061765, 33.650819], [73.064433, 33.6522], [73.066638, 33.653492], [73.070194, 33.655324], [73.072657, 33.656615], [73.07525, 33.657911], [73.080001, 33.660411], [73.08287, 33.6622], [73.08478, 33.663284], [73.085349, 33.663536], [73.086131, 33.66385], [73.087095, 33.664859], [73.088673, 33.666713], [73.089864, 33.668024], [73.091373, 33.669633], [73.092387, 33.670801], [73.093341, 33.672429], [73.094289, 33.674321], [73.096033, 33.678035], [73.096028, 33.678033], [73.096448, 33.678404], [73.097515, 33.679124], [73.102643, 33.681972], [73.103554, 33.682491], [73.10428, 33.683098], [73.108475, 33.687297], [73.109799, 33.68919], [73.110011, 33.690223], [73.110118, 33.691634], [73.110274, 33.694381], [73.11041, 33.696503], [73.110435, 33.697922], [73.110257, 33.698617], [73.109048, 33.701191], [73.10616, 33.706647], [73.105114, 33.708721], [73.105255, 33.709023], [73.105415, 33.709469], [73.105559, 33.710178], [73.106226, 33.711341], [73.106945, 33.711787], [73.110004, 33.713169], [73.111011, 33.713619], [73.111878, 33.714195], [73.112533, 33.714691], [73.114235, 33.71567], [73.118575, 33.718117], [73.119882, 33.718719], [73.120371, 33.718889], [73.121917, 33.718794], [73.123941, 33.71868], [73.124602, 33.718718], [73.126067, 33.719362], [73.127261, 33.720047], [73.12794, 33.72035], [73.129379, 33.720644], [73.132296, 33.721161], [73.133909, 33.72163], [73.134886, 33.722327], [73.136271, 33.72354], [73.137851, 33.724888], [73.139448, 33.726151], [73.142562, 33.72823], [73.144813, 33.729715], [73.147515, 33.731238], [73.150735, 33.732977], [73.151985, 33.733488], [73.155157, 33.73429], [73.15641, 33.734516], [73.160328, 33.734815], [73.164799, 33.735115], [73.165208, 33.735227], [73.165334, 33.735511]]}}, {"type": "Feature", "properties": {"shape_id": "fr_8a_0"}, "geometry": {"type": "LineString", "coordinates": [[73.051881, 33.706009], [73.054165, 33.707185], [73.054402, 33.706995], [73.058558, 33.701361], [73.058881, 33.70125], [73.059085, 33.701144], [73.059137, 33.700966], [73.059148, 33.700667], [73.059994, 33.69953], [73.060238, 33.699465], [73.061393, 33.700088], [73.061578, 33.69995], [73.062979, 33.698047], [73.062943, 33.697891], [73.062574, 33.697669], [73.062583, 33.697527], [73.063825, 33.696053], [73.064304, 33.695889], [73.064821, 33.695925], [73.0655, 33.696274], [73.06606, 33.696367], [73.066542, 33.696265], [73.067187, 33.696073], [73.06765, 33.696211], [73.072611, 33.698795], [73.078677, 33.701985], [73.079186, 33.702153], [73.08018, 33.702634], [73.083547, 33.704394], [73.084497, 33.704863], [73.085305, 33.70545], [73.091464, 33.708684], [73.099066, 33.712663], [73.102737, 33.714586], [73.105161, 33.715834], [73.105271, 33.715817], [73.105188, 33.715692], [73.103625, 33.714787], [73.102722, 33.714304], [73.102658, 33.71421], [73.102721, 33.71405], [73.103467, 33.713072], [73.103657, 33.712697], [73.103654, 33.712054], [73.103607, 33.711478], [73.103885, 33.710936], [73.104339, 33.710105], [73.105045, 33.709331], [73.105358, 33.709168], [73.105845, 33.70908], [73.106222, 33.708721], [73.106324, 33.708068], [73.106211, 33.707667], [73.106434, 33.706534], [73.106752, 33.705991], [73.110104, 33.699506], [73.110554, 33.698419], [73.110652, 33.697404], [73.110403, 33.69239], [73.110327, 33.691278], [73.110538, 33.690474], [73.110699, 33.689588], [73.110805, 33.689365], [73.111169, 33.689236], [73.111914, 33.689227], [73.113331, 33.689246], [73.114669, 33.689278], [73.115966, 33.689096], [73.117434, 33.688696], [73.118231, 33.688465], [73.119656, 33.688281], [73.122806, 33.688064], [73.12415, 33.687925], [73.129301, 33.687791], [73.131028, 33.687504], [73.132251, 33.687247], [73.133377, 33.686763], [73.134377, 33.686008], [73.135649, 33.684518], [73.140764, 33.678491], [73.143635, 33.675077], [73.146719, 33.671363], [73.152522, 33.664527], [73.153023, 33.663694], [73.153377, 33.663053], [73.153603, 33.660611], [73.153763, 33.657553], [73.153855, 33.656895], [73.154114, 33.656036], [73.154378, 33.655501], [73.154949, 33.654829], [73.155494, 33.654358], [73.157748, 33.653054], [73.15969, 33.651905], [73.160235, 33.651471], [73.16073, 33.650899], [73.161173, 33.650311], [73.161535, 33.6496], [73.161941, 33.648732], [73.162566, 33.647462], [73.163032, 33.646473], [73.163869, 33.644802]]}}, {"type": "Feature", "properties": {"shape_id": "fr_8a_1"}, "geometry": {"type": "LineString", "coordinates": [[73.163678, 33.644744], [73.160986, 33.650282], [73.160532, 33.650898], [73.15948, 33.651871], [73.155388, 33.654199], [73.154748, 33.654775], [73.154261, 33.655367], [73.153898, 33.655979], [73.153648, 33.656841], [73.153144, 33.662769], [73.153033, 33.663214], [73.152627, 33.664026], [73.134013, 33.686043], [73.13363, 33.686382], [73.132589, 33.686956], [73.13172, 33.687214], [73.129849, 33.68747], [73.128693, 33.687601], [73.124773, 33.687756], [73.12241, 33.687853], [73.118575, 33.688182], [73.116924, 33.688575], [73.115129, 33.689039], [73.114047, 33.689063], [73.111341, 33.68898], [73.110761, 33.688874], [73.110354, 33.688682], [73.110059, 33.688755], [73.109881, 33.688912], [73.109877, 33.689109], [73.110088, 33.689352], [73.110194, 33.689764], [73.110163, 33.690321], [73.110116, 33.691089], [73.110148, 33.692361], [73.110251, 33.693819], [73.11046, 33.697296], [73.110464, 33.697928], [73.110335, 33.698518], [73.107877, 33.703506], [73.10639, 33.706209], [73.105725, 33.707695], [73.105226, 33.708527], [73.104658, 33.709412], [73.103642, 33.711049], [73.103491, 33.711467], [73.103449, 33.711724], [73.10353, 33.712599], [73.103181, 33.713182], [73.102486, 33.714009], [73.102236, 33.714009], [73.099935, 33.712845], [73.098942, 33.712422], [73.097401, 33.711628], [73.085717, 33.705528], [73.084859, 33.705021], [73.084514, 33.704786], [73.079984, 33.702444], [73.078994, 33.701974], [73.06782, 33.69616], [73.067211, 33.695972], [73.066113, 33.696281], [73.065581, 33.696186], [73.064965, 33.695825], [73.064611, 33.69524], [73.06492, 33.694396], [73.065778, 33.693308], [73.066189, 33.693009], [73.066686, 33.693028], [73.067069, 33.693367], [73.066983, 33.693951], [73.066486, 33.694111], [73.065605, 33.693849], [73.064793, 33.693454], [73.064146, 33.693066], [73.063969, 33.692806], [73.06374, 33.692366], [73.063865, 33.691957], [73.064064, 33.691635], [73.064586, 33.691448], [73.064969, 33.691441], [73.065363, 33.691608], [73.065637, 33.691883], [73.065753, 33.692332], [73.065698, 33.692899], [73.065236, 33.693574], [73.060929, 33.699301], [73.05462, 33.707503], [73.054425, 33.707579], [73.054163, 33.707431], [73.054278, 33.707206], [73.054216, 33.707026], [73.051983, 33.705871]]}}, {"type": "Feature", "properties": {"shape_id": "fr_8c_0"}, "geometry": {"type": "LineString", "coordinates": [[73.051881, 33.706009], [73.054165, 33.707185], [73.054423, 33.707004], [73.054418, 33.707003], [73.056143, 33.704624], [73.058473, 33.701482], [73.058738, 33.701284], [73.059086, 33.701149], [73.059134, 33.700877], [73.059162, 33.700664], [73.060661, 33.698709], [73.062064, 33.696934], [73.06236, 33.696344], [73.062456, 33.696131], [73.061933, 33.694137], [73.061603, 33.693357], [73.061365, 33.692932], [73.060877, 33.692496], [73.060357, 33.692195], [73.060444, 33.691987], [73.060722, 33.691782], [73.061058, 33.691719], [73.066335, 33.694572], [73.066671, 33.695094], [73.066649, 33.695495], [73.066452, 33.695807], [73.065865, 33.69609], [73.065339, 33.695999], [73.064801, 33.695678], [73.064636, 33.695003], [73.064935, 33.694402], [73.084548, 33.668184], [73.085361, 33.667212], [73.08594, 33.666902], [73.087131, 33.666772], [73.088218, 33.666628], [73.088658, 33.666775], [73.089246, 33.667411], [73.091402, 33.669622], [73.09251, 33.670945], [73.09292, 33.671745], [73.09372, 33.673149], [73.095812, 33.677659], [73.096137, 33.678161], [73.096839, 33.678727], [73.10227, 33.681748], [73.103317, 33.682303], [73.104433, 33.683171], [73.10608, 33.684804], [73.10862, 33.687251], [73.109299, 33.688065], [73.109673, 33.688634], [73.109925, 33.688868], [73.110397, 33.689008], [73.112804, 33.689159], [73.114305, 33.689322], [73.115344, 33.689261], [73.115966, 33.689096], [73.117434, 33.688696], [73.118231, 33.688465], [73.119656, 33.688281], [73.122806, 33.688064], [73.12415, 33.687925], [73.129301, 33.687791], [73.131028, 33.687504], [73.132251, 33.687247], [73.133377, 33.686763], [73.134377, 33.686008], [73.135649, 33.684518], [73.140764, 33.678491], [73.143635, 33.675077], [73.146719, 33.671363], [73.152522, 33.664527], [73.153023, 33.663694], [73.153377, 33.663053], [73.153603, 33.660611], [73.153763, 33.657553], [73.153855, 33.656895], [73.154114, 33.656036], [73.154378, 33.655501], [73.154949, 33.654829], [73.155494, 33.654358], [73.157748, 33.653054], [73.15969, 33.651905], [73.160235, 33.651471], [73.16073, 33.650899], [73.161173, 33.650311], [73.161535, 33.6496], [73.161941, 33.648732], [73.162566, 33.647462], [73.163032, 33.646473], [73.163869, 33.644802]]}}, {"type": "Feature", "properties": {"shape_id": "fr_8c_1"}, "geometry": {"type": "LineString", "coordinates": [[73.163678, 33.644744], [73.160986, 33.650282], [73.160532, 33.650898], [73.15948, 33.651871], [73.155388, 33.654199], [73.154748, 33.654775], [73.154261, 33.655367], [73.153898, 33.655979], [73.153648, 33.656841], [73.153144, 33.662769], [73.153033, 33.663214], [73.152627, 33.664026], [73.134013, 33.686043], [73.13363, 33.686382], [73.132589, 33.686956], [73.13172, 33.687214], [73.129849, 33.68747], [73.128693, 33.687601], [73.124773, 33.687756], [73.12241, 33.687853], [73.118575, 33.688182], [73.116924, 33.688575], [73.115129, 33.689039], [73.114047, 33.689063], [73.112136, 33.689014], [73.111266, 33.688911], [73.110606, 33.688674], [73.109749, 33.687968], [73.108685, 33.686944], [73.106794, 33.685271], [73.104821, 33.683307], [73.103935, 33.682577], [73.102404, 33.681647], [73.099664, 33.680162], [73.098001, 33.67926], [73.096615, 33.678377], [73.096138, 33.677824], [73.095581, 33.676803], [73.095272, 33.676012], [73.093809, 33.672999], [73.093112, 33.671704], [73.092738, 33.671027], [73.092186, 33.670339], [73.090663, 33.668557], [73.088839, 33.666538], [73.088189, 33.665726], [73.087067, 33.664316], [73.086643, 33.663837], [73.086534, 33.663357], [73.086645, 33.663197], [73.086915, 33.663104], [73.087185, 33.663117], [73.087391, 33.663277], [73.087494, 33.663668], [73.087238, 33.664074], [73.085814, 33.666068], [73.064366, 33.694621], [73.062487, 33.697167], [73.054675, 33.707455], [73.054449, 33.707549], [73.054258, 33.707413], [73.054278, 33.707206], [73.054345, 33.707096], [73.054761, 33.706504], [73.054867, 33.706325], [73.054782, 33.706294], [73.054715, 33.706381], [73.054278, 33.706963], [73.054263, 33.706969], [73.054007, 33.706906], [73.051983, 33.705871]]}}, {"type": "Feature", "properties": {"shape_id": "fr_9_0"}, "geometry": {"type": "LineString", "coordinates": [[73.116643, 33.627302], [73.116577, 33.627511], [73.116658, 33.627782], [73.115822, 33.628942], [73.115613, 33.62909], [73.115242, 33.629082], [73.114377, 33.629068], [73.112975, 33.629162], [73.112624, 33.628995], [73.11253, 33.628761], [73.112651, 33.628505], [73.112972, 33.628144], [73.113277, 33.628046], [73.113531, 33.628125], [73.113676, 33.628374], [73.113559, 33.628912], [73.098261, 33.649349], [73.097961, 33.649517], [73.09775, 33.649766], [73.09768, 33.650037], [73.097262, 33.650659], [73.095485, 33.653085], [73.093501, 33.655765], [73.091247, 33.658862], [73.089442, 33.661173], [73.088636, 33.661738], [73.086856, 33.662807], [73.085971, 33.663289], [73.08534, 33.663371], [73.084883, 33.663201], [73.082817, 33.662027], [73.082533, 33.6618], [73.080795, 33.660766], [73.079188, 33.659753], [73.07688, 33.658565], [73.07351, 33.656811], [73.067287, 33.65352], [73.063731, 33.651634], [73.057773, 33.64849], [73.054615, 33.647087], [73.052668, 33.646078], [73.049068, 33.643944], [73.045688, 33.642142], [73.038892, 33.6386], [73.033173, 33.63563], [73.032117, 33.634978], [73.031685, 33.634634], [73.031507, 33.634502], [73.03117, 33.634422], [73.030825, 33.634334], [73.030184, 33.634017], [73.027273, 33.632558], [73.02273, 33.630068], [73.010132, 33.623553], [73.0101, 33.623532], [73.000498, 33.618453], [72.993664, 33.614939], [72.993324, 33.614757], [72.992128, 33.614662], [72.990834, 33.6148], [72.989607, 33.615397], [72.986758, 33.61668], [72.98317, 33.617834], [72.982078, 33.618239], [72.979515, 33.62013], [72.978022, 33.621112], [72.971885, 33.62413], [72.970175, 33.624962], [72.969943, 33.625314], [72.969761, 33.625823], [72.969507, 33.627142], [72.968884, 33.62916], [72.96825, 33.631025], [72.967403, 33.633246], [72.966741, 33.634754], [72.966026, 33.635979], [72.965116, 33.637513], [72.964484, 33.63878], [72.96428, 33.639764], [72.964748, 33.64122], [72.96498, 33.641971], [72.964896, 33.642514], [72.964555, 33.643257], [72.962418, 33.642149], [72.962427, 33.642], [72.962599, 33.641702], [72.962527, 33.641538], [72.962235, 33.641371]]}}, {"type": "Feature", "properties": {"shape_id": "fr_9_1"}, "geometry": {"type": "LineString", "coordinates": [[72.962194, 33.641438], [72.962424, 33.641562], [72.962488, 33.641684], [72.962287, 33.641977], [72.962348, 33.642172], [72.964639, 33.643397], [72.964883, 33.642969], [72.965085, 33.642334], [72.965085, 33.641989], [72.965104, 33.641791], [72.964879, 33.640964], [72.964552, 33.64012], [72.964493, 33.639351], [72.964676, 33.638755], [72.965831, 33.636595], [72.966887, 33.634831], [72.967653, 33.632968], [72.968326, 33.631086], [72.96955, 33.627194], [72.969916, 33.625785], [72.970028, 33.625571], [72.970342, 33.625338], [72.971007, 33.624968], [72.976031, 33.622356], [72.978576, 33.62107], [72.979439, 33.620439], [72.981517, 33.618792], [72.982206, 33.61836], [72.983936, 33.617756], [72.985319, 33.61738], [72.98644, 33.617057], [72.988718, 33.616049], [72.989686, 33.615617], [72.990391, 33.615294], [72.99191, 33.614852], [72.992577, 33.614903], [72.993399, 33.615162], [72.994221, 33.615419], [72.994379, 33.61558], [72.994492, 33.615738], [72.994677, 33.615826], [72.99487, 33.615838], [72.995183, 33.61592], [72.997175, 33.61691], [72.999131, 33.617991], [73.005029, 33.621048], [73.019339, 33.628622], [73.024619, 33.631434], [73.029146, 33.633838], [73.031243, 33.634894], [73.032305, 33.635436], [73.032437, 33.635576], [73.032783, 33.63574], [73.033229, 33.63586], [73.034595, 33.636496], [73.038149, 33.63839], [73.039022, 33.638871], [73.040007, 33.639424], [73.042137, 33.640489], [73.047515, 33.643359], [73.049768, 33.644614], [73.050743, 33.645207], [73.051918, 33.645879], [73.054106, 33.646972], [73.054784, 33.647348], [73.056132, 33.647983], [73.0575, 33.648594], [73.059426, 33.649554], [73.061765, 33.650819], [73.064433, 33.6522], [73.066638, 33.653492], [73.070194, 33.655324], [73.072657, 33.656615], [73.07525, 33.657911], [73.080001, 33.660411], [73.08287, 33.6622], [73.08478, 33.663284], [73.085349, 33.663536], [73.086131, 33.66385], [73.087095, 33.664859], [73.087712, 33.665638], [73.087783, 33.666081], [73.087676, 33.66642], [73.087335, 33.666593], [73.086979, 33.666613], [73.086666, 33.666463], [73.086459, 33.666186], [73.086509, 33.665651], [73.087122, 33.664704], [73.087904, 33.663693], [73.091664, 33.65866], [73.097769, 33.650539], [73.098236, 33.650124], [73.098427, 33.649908], [73.098595, 33.649566], [73.099825, 33.647773], [73.101622, 33.645276], [73.114788, 33.627686], [73.115222, 33.627216], [73.115609, 33.627067], [73.11582, 33.626916], [73.11595, 33.626713], [73.115959, 33.626581]]}}, {"type": "Feature", "properties": {"shape_id": "green_0"}, "geometry": {"type": "LineString", "coordinates": [[73.051881, 33.706009], [73.054165, 33.707185], [73.054402, 33.706995], [73.058558, 33.701361], [73.058881, 33.70125], [73.059085, 33.701144], [73.059137, 33.700966], [73.059148, 33.700667], [73.06227, 33.696671], [73.062455, 33.696132], [73.062342, 33.695459], [73.061988, 33.694268], [73.06152, 33.693143], [73.060966, 33.69261], [73.06038, 33.692201], [73.060309, 33.692083], [73.06087, 33.69168], [73.064666, 33.69367], [73.069256, 33.696089], [73.075195, 33.699124], [73.077506, 33.700375], [73.077601, 33.700538], [73.077832, 33.700675], [73.07815, 33.700789], [73.078692, 33.700905], [73.08035, 33.701582], [73.081495, 33.702229], [73.083816, 33.703401], [73.085569, 33.704218], [73.086635, 33.704664], [73.087529, 33.705258], [73.087706, 33.705471], [73.087918, 33.70572], [73.088126, 33.705844], [73.088459, 33.70594], [73.088775, 33.706111], [73.089265, 33.706425], [73.098076, 33.711013], [73.101058, 33.712598], [73.102506, 33.713432], [73.103765, 33.714099], [73.110538, 33.717711], [73.115391, 33.720159], [73.115401, 33.720201], [73.115352, 33.720223], [73.11687, 33.72039], [73.117575, 33.720133], [73.118666, 33.719521], [73.119723, 33.719166], [73.122087, 33.718868], [73.123944, 33.718682], [73.124784, 33.718786], [73.126854, 33.71992], [73.127809, 33.72033], [73.131102, 33.720947], [73.13326, 33.721358], [73.134618, 33.722128], [73.138802, 33.725715], [73.144682, 33.729692], [73.14472, 33.729696], [73.150935, 33.733067], [73.15201, 33.733506], [73.156263, 33.734506], [73.161169, 33.734889], [73.163759, 33.73506], [73.165028, 33.735135], [73.165304, 33.735347], [73.165295, 33.735528]]}}, {"type": "Feature", "properties": {"shape_id": "green_1"}, "geometry": {"type": "LineString", "coordinates": [[73.165586, 33.735366], [73.16565, 33.734903], [73.164533, 33.734917], [73.16139, 33.734719], [73.159517, 33.734609], [73.155931, 33.734297], [73.152062, 33.733327], [73.150858, 33.73286], [73.144945, 33.729531], [73.140971, 33.727047], [73.138453, 33.725185], [73.13554, 33.72263], [73.134558, 33.721659], [73.133664, 33.721125], [73.131905, 33.720903], [73.130158, 33.720646], [73.128118, 33.720146], [73.125938, 33.719092], [73.124829, 33.718599], [73.120016, 33.718821], [73.118492, 33.719437], [73.11761, 33.719905], [73.116835, 33.720185], [73.1154, 33.719968], [73.115344, 33.719965], [73.089449, 33.706369], [73.089036, 33.706055], [73.088798, 33.705825], [73.088496, 33.705714], [73.088199, 33.705576], [73.087675, 33.705173], [73.087668, 33.705166], [73.087123, 33.704701], [73.085367, 33.703851], [73.080721, 33.701414], [73.079069, 33.700787], [73.0785, 33.700555], [73.07832, 33.700319], [73.078034, 33.700181], [73.077521, 33.700105], [73.075792, 33.699187], [73.069416, 33.695926], [73.06502, 33.69356], [73.064146, 33.693066], [73.063969, 33.692806], [73.06374, 33.692366], [73.063865, 33.691957], [73.064064, 33.691635], [73.064586, 33.691448], [73.064969, 33.691441], [73.065363, 33.691608], [73.065637, 33.691883], [73.065753, 33.692332], [73.065698, 33.692899], [73.065236, 33.693574], [73.062487, 33.697167], [73.054675, 33.707455], [73.054449, 33.707549], [73.054258, 33.707413], [73.054278, 33.707206], [73.054345, 33.707096], [73.054761, 33.706504], [73.054867, 33.706325], [73.054782, 33.706294], [73.054715, 33.706381], [73.054278, 33.706963], [73.054263, 33.706969], [73.054007, 33.706906], [73.051983, 33.705871]]}}, {"type": "Feature", "properties": {"shape_id": "orange2_0"}, "geometry": {"type": "LineString", "coordinates": [[72.944139, 33.632119], [72.943267, 33.632325], [72.942035, 33.632527], [72.940594, 33.63233], [72.939605, 33.632049], [72.938521, 33.631458], [72.936444, 33.629889], [72.933836, 33.62782], [72.930922, 33.625863], [72.930087, 33.625392], [72.928796, 33.624506], [72.925999, 33.622205], [72.922932, 33.620026], [72.920371, 33.618632], [72.916811, 33.61713], [72.912305, 33.615666], [72.90886, 33.614366], [72.905291, 33.612729], [72.898761, 33.608775], [72.894109, 33.605846], [72.890451, 33.603673], [72.888074, 33.602687], [72.885429, 33.601637], [72.882703, 33.600276], [72.881536, 33.599492], [72.88046, 33.598469], [72.879395, 33.597095], [72.87845, 33.595303], [72.877738, 33.594191], [72.87668, 33.593096], [72.875141, 33.592238], [72.872621, 33.590999], [72.872122, 33.590714], [72.871842, 33.59033], [72.871636, 33.589982], [72.871304, 33.589647], [72.870345, 33.589136], [72.869917, 33.589013], [72.86936, 33.58902], [72.868662, 33.589019], [72.868074, 33.588849], [72.864916, 33.587112], [72.862651, 33.585928], [72.861696, 33.585389], [72.860193, 33.584407], [72.859124, 33.583596], [72.858719, 33.583242], [72.858414, 33.582882], [72.858085, 33.582424], [72.857758, 33.581715], [72.85761, 33.58064], [72.857682, 33.579926], [72.857795, 33.579578], [72.857953, 33.579099], [72.858705, 33.578006], [72.860191, 33.576073], [72.865103, 33.569589], [72.866002, 33.568482], [72.867772, 33.566108], [72.870132, 33.5631], [72.870683, 33.562303], [72.871029, 33.561526], [72.871221, 33.560726], [72.87126, 33.559953], [72.871156, 33.559455], [72.870915, 33.558621], [72.870644, 33.558115], [72.870108, 33.557328], [72.869393, 33.556602], [72.868537, 33.555999], [72.867922, 33.555663], [72.86732, 33.555405], [72.866194, 33.555052], [72.865334, 33.55487], [72.864519, 33.554763], [72.863105, 33.554812], [72.862622, 33.55487], [72.861752, 33.555089], [72.861267, 33.555204], [72.857935, 33.555706], [72.839536, 33.558596], [72.839103, 33.558603], [72.838795, 33.558526], [72.838628, 33.558418], [72.838452, 33.558288], [72.838284, 33.557675], [72.838113, 33.556964], [72.837998, 33.55666], [72.837921, 33.556516], [72.837909, 33.556398], [72.837864, 33.556262], [72.837692, 33.556112], [72.837393, 33.555912]]}}, {"type": "Feature", "properties": {"shape_id": "orange2_1"}, "geometry": {"type": "LineString", "coordinates": [[72.837289, 33.555977], [72.837502, 33.556125], [72.837565, 33.556194], [72.837566, 33.556267], [72.835644, 33.558627], [72.835611, 33.558721], [72.835671, 33.558912], [72.835788, 33.559112], [72.835955, 33.55922], [72.836297, 33.559276], [72.837088, 33.559267], [72.838373, 33.55911], [72.860678, 33.555606], [72.86244, 33.555313], [72.864017, 33.555009], [72.864797, 33.554906], [72.865331, 33.554943], [72.865933, 33.555046], [72.866549, 33.55521], [72.86757, 33.55555], [72.868172, 33.555834], [72.869014, 33.55638], [72.869503, 33.556793], [72.869918, 33.557205], [72.870514, 33.557998], [72.870803, 33.558554], [72.871109, 33.559425], [72.871191, 33.559976], [72.871175, 33.560647], [72.870866, 33.561813], [72.870657, 33.562265], [72.870226, 33.562903], [72.86712, 33.566758], [72.865272, 33.569253], [72.863773, 33.571268], [72.8584, 33.578333], [72.858125, 33.578703], [72.857916, 33.579078], [72.85772, 33.579549], [72.85765, 33.579823], [72.857596, 33.580194], [72.857539, 33.580607], [72.857578, 33.581188], [72.857789, 33.581939], [72.858175, 33.582674], [72.85853, 33.583116], [72.859112, 33.583646], [72.863811, 33.586638], [72.867847, 33.588836], [72.868226, 33.589081], [72.868572, 33.589404], [72.868877, 33.590053], [72.869176, 33.590376], [72.870289, 33.591014], [72.870772, 33.591118], [72.87123, 33.591045], [72.871719, 33.591009], [72.87243, 33.591163], [72.874805, 33.592211], [72.876446, 33.593217], [72.877014, 33.593722], [72.877851, 33.594799], [72.87913, 33.597172], [72.880191, 33.598527], [72.882449, 33.600329], [72.884869, 33.601528], [72.887791, 33.602735], [72.890281, 33.603814], [72.892653, 33.605184], [72.90244, 33.611318], [72.905944, 33.61326], [72.908578, 33.614504], [72.911421, 33.615574], [72.916826, 33.617342], [72.919343, 33.618362], [72.922925, 33.620265], [72.925358, 33.621894], [72.929154, 33.624964], [72.933907, 33.628139], [72.936953, 33.630435], [72.938956, 33.63196], [72.940298, 33.632413], [72.94135, 33.632583], [72.942528, 33.632615], [72.944082, 33.632301], [72.944722, 33.632086]]}}, {"type": "Feature", "properties": {"shape_id": "orange_0"}, "geometry": {"type": "LineString", "coordinates": [[73.054466, 33.675493], [73.054368, 33.675623], [73.053963, 33.676115], [73.053311, 33.676974], [73.050764, 33.680394], [73.049135, 33.682462], [73.048585, 33.683136], [73.048411, 33.683144], [73.048324, 33.683044], [73.048158, 33.682737], [73.047712, 33.682143], [73.047477, 33.682013], [73.046499, 33.681506], [73.041189, 33.678611], [73.040516, 33.678347], [73.040193, 33.678268], [73.039426, 33.678225], [73.03723, 33.678362], [73.036672, 33.678241], [73.036045, 33.67795], [73.034628, 33.677171], [73.033377, 33.676535], [73.030928, 33.675319], [73.027352, 33.673431], [73.026075, 33.672659], [73.02448, 33.671818], [73.024001, 33.671509], [73.021977, 33.670548], [73.017723, 33.668382], [73.016808, 33.667854], [73.015961, 33.66738], [73.014647, 33.666711], [73.013893, 33.666352], [73.009466, 33.664039], [73.008723, 33.663603], [73.007725, 33.663057], [73.006922, 33.66267], [73.006244, 33.662361], [73.004207, 33.661292], [72.999577, 33.65886], [72.994313, 33.656076], [72.992452, 33.65507], [72.991777, 33.654745], [72.985021, 33.651254], [72.983823, 33.650585], [72.982885, 33.650043], [72.98138, 33.649293], [72.980479, 33.648965], [72.979562, 33.648755], [72.978955, 33.648512], [72.978146, 33.648101], [72.966994, 33.642222], [72.966596, 33.642084], [72.965448, 33.641854], [72.964525, 33.641745], [72.963871, 33.641598], [72.962867, 33.641156], [72.961367, 33.640337], [72.959869, 33.639585], [72.958257, 33.638706], [72.955781, 33.637329], [72.953253, 33.635959], [72.951914, 33.635252], [72.951153, 33.634756], [72.950063, 33.633915], [72.947854, 33.632141], [72.947477, 33.631924], [72.947021, 33.631761], [72.946439, 33.631649], [72.945998, 33.631648], [72.945345, 33.631771], [72.944289, 33.632079]]}}, {"type": "Feature", "properties": {"shape_id": "orange_1"}, "geometry": {"type": "LineString", "coordinates": [[72.944121, 33.632285], [72.945565, 33.631834], [72.946, 33.631758], [72.946655, 33.631764], [72.946993, 33.631818], [72.947427, 33.631964], [72.947821, 33.63218], [72.948647, 33.632856], [72.950228, 33.634108], [72.951245, 33.634888], [72.952256, 33.635522], [72.954709, 33.636893], [72.956944, 33.638079], [72.959486, 33.639431], [72.961091, 33.640343], [72.963204, 33.641463], [72.96427, 33.641769], [72.965454, 33.641906], [72.965999, 33.641983], [72.966531, 33.642142], [72.967878, 33.642799], [72.972616, 33.645229], [72.978861, 33.648508], [72.97939, 33.648735], [72.979648, 33.648828], [72.98061, 33.649063], [72.981059, 33.64926], [72.982825, 33.650202], [72.991462, 33.65465], [72.991948, 33.654949], [72.992798, 33.655418], [72.993964, 33.656049], [72.994355, 33.656215], [72.995742, 33.656907], [73.006169, 33.662367], [73.006649, 33.662644], [73.007829, 33.6633], [73.008704, 33.663732], [73.009613, 33.664187], [73.014222, 33.666574], [73.014517, 33.666765], [73.015477, 33.667308], [73.016628, 33.667923], [73.017368, 33.668258], [73.021946, 33.670666], [73.023001, 33.671205], [73.024052, 33.671698], [73.024634, 33.671929], [73.03246, 33.676154], [73.033126, 33.676528], [73.035106, 33.677562], [73.035936, 33.677947], [73.036648, 33.678296], [73.037095, 33.67839], [73.037484, 33.678408], [73.039416, 33.678284], [73.040102, 33.6783], [73.040482, 33.678384], [73.041056, 33.678599], [73.042558, 33.67942], [73.043802, 33.680052], [73.044316, 33.680372], [73.047555, 33.682106], [73.047706, 33.682202], [73.048111, 33.682757], [73.048302, 33.683151], [73.048427, 33.683296], [73.04856, 33.6833], [73.048686, 33.683155], [73.053523, 33.676795], [73.053791, 33.676445], [73.054104, 33.676137], [73.054378, 33.675818], [73.054585, 33.675516]]}}, {"type": "Feature", "properties": {"shape_id": "red_0"}, "geometry": {"type": "LineString", "coordinates": [[73.055818, 33.593331], [73.05654, 33.593968], [73.058354, 33.595595], [73.062379, 33.599112], [73.063397, 33.600004], [73.064611, 33.601146], [73.065116, 33.601673], [73.06562, 33.602319], [73.065766, 33.602598], [73.065924, 33.603208], [73.066047, 33.604288], [73.066015, 33.605061], [73.065987, 33.605571], [73.0659, 33.606333], [73.065677, 33.60763], [73.065487, 33.609504], [73.065153, 33.612586], [73.065153, 33.613721], [73.065199, 33.61444], [73.065367, 33.615873], [73.066002, 33.61972], [73.066117, 33.620104], [73.066394, 33.621167], [73.066642, 33.621806], [73.068063, 33.624091], [73.069324, 33.626075], [73.070485, 33.627851], [73.071164, 33.628623], [73.071626, 33.629226], [73.072584, 33.630788], [73.073209, 33.63188], [73.073456, 33.632392], [73.074639, 33.635229], [73.074859, 33.635744], [73.075298, 33.636834], [73.075445, 33.637302], [73.076078, 33.638917], [73.077525, 33.642492], [73.077731, 33.642889], [73.078121, 33.643866], [73.078246, 33.644286], [73.078357, 33.644904], [73.0785, 33.645555], [73.079155, 33.647242], [73.080295, 33.650036], [73.080671, 33.650952], [73.080835, 33.651499], [73.081686, 33.653624], [73.084167, 33.659823], [73.084273, 33.660335], [73.084247, 33.660624], [73.084018, 33.660955], [73.083712, 33.661153], [73.083289, 33.661306], [73.082272, 33.661476], [73.081636, 33.661466], [73.081425, 33.6614], [73.080981, 33.661209], [73.075455, 33.658256], [73.072367, 33.656704], [73.07081, 33.655877], [73.070257, 33.655792], [73.069957, 33.655822], [73.069524, 33.655947], [73.069225, 33.656091], [73.068927, 33.656348], [73.068348, 33.657126], [73.066039, 33.66033], [73.065354, 33.661185], [73.065162, 33.661345], [73.062451, 33.664937], [73.060178, 33.667965], [73.060006, 33.66828], [73.059091, 33.669516], [73.058962, 33.669654], [73.058512, 33.67017], [73.055689, 33.673946], [73.055084, 33.67482], [73.054265, 33.675936], [73.054109, 33.676123], [73.053734, 33.676507], [73.053152, 33.677249], [73.049753, 33.681753], [73.048072, 33.684035], [73.047345, 33.68503], [73.046261, 33.686354], [73.046009, 33.68657], [73.045151, 33.687247], [73.044845, 33.687475], [73.044639, 33.687693], [73.044143, 33.688363], [73.042918, 33.690087], [73.042265, 33.690857], [73.039053, 33.695196], [73.038172, 33.696372], [73.037056, 33.69781], [73.036544, 33.699132], [73.036598, 33.699563], [73.036976, 33.699881], [73.037639, 33.700252], [73.038643, 33.700782], [73.04126, 33.702119], [73.043593, 33.703375], [73.046677, 33.704967], [73.048705, 33.706017], [73.05047, 33.70696], [73.057832, 33.710803], [73.058997, 33.711405], [73.060803, 33.712359], [73.066734, 33.715468], [73.071969, 33.718198], [73.078118, 33.721419], [73.082636, 33.72379], [73.084141, 33.72456], [73.087673, 33.72645], [73.088548, 33.727198], [73.088943, 33.727618], [73.089262, 33.727885], [73.089633, 33.728094], [73.091896, 33.729282], [73.092307, 33.729641], [73.092476, 33.729891], [73.092581, 33.73023], [73.093065, 33.731862], [73.093201, 33.732352], [73.093278, 33.732903], [73.093264, 33.733164], [73.09322, 33.733427], [73.093103, 33.733796], [73.092924, 33.734165], [73.092397, 33.735114]]}}, {"type": "Feature", "properties": {"shape_id": "red_1"}, "geometry": {"type": "LineString", "coordinates": [[73.092161, 33.735321], [73.092264, 33.735126], [73.092815, 33.734074], [73.093028, 33.73373], [73.09315, 33.733483], [73.093209, 33.733218], [73.09322, 33.732831], [73.093142, 33.732329], [73.093008, 33.731842], [73.092494, 33.730086], [73.092309, 33.729712], [73.092065, 33.729469], [73.091825, 33.729291], [73.089589, 33.728141], [73.089043, 33.727789], [73.088502, 33.72721], [73.087654, 33.7265], [73.086407, 33.725851], [73.08383, 33.724531], [73.072522, 33.718616], [73.070135, 33.717349], [73.060171, 33.71214], [73.058345, 33.711186], [73.056966, 33.710391], [73.050565, 33.707068], [73.049414, 33.706504], [73.047519, 33.705513], [73.041536, 33.702387], [73.039016, 33.701056], [73.036987, 33.699958], [73.03659, 33.699671], [73.036485, 33.699262], [73.036509, 33.699119], [73.036776, 33.698341], [73.037031, 33.697774], [73.037791, 33.696735], [73.038045, 33.696364], [73.038959, 33.695164], [73.039245, 33.694842], [73.042377, 33.690635], [73.043168, 33.68951], [73.043525, 33.689079], [73.044681, 33.687567], [73.044879, 33.687379], [73.0452, 33.687131], [73.046176, 33.686364], [73.046561, 33.685913], [73.047879, 33.684083], [73.048643, 33.68313], [73.053819, 33.676296], [73.055139, 33.674588], [73.059482, 33.668779], [73.060231, 33.667823], [73.066179, 33.659894], [73.068018, 33.657452], [73.068864, 33.656353], [73.069229, 33.656038], [73.069591, 33.655883], [73.070054, 33.655771], [73.070421, 33.655768], [73.07069, 33.655802], [73.070987, 33.655866], [73.071458, 33.656084], [73.073424, 33.657145], [73.080786, 33.661061], [73.081244, 33.661274], [73.081679, 33.661376], [73.082145, 33.661375], [73.083485, 33.661116], [73.083833, 33.660934], [73.084196, 33.660505], [73.084209, 33.660178], [73.084144, 33.659934], [73.080906, 33.651755], [73.080694, 33.651335], [73.080197, 33.650084], [73.08008, 33.64973], [73.078441, 33.645559], [73.078372, 33.645246], [73.078267, 33.644608], [73.078145, 33.644284], [73.077755, 33.643298], [73.077506, 33.642585], [73.075391, 33.637294], [73.07526, 33.637038], [73.075034, 33.636552], [73.074692, 33.635571], [73.074595, 33.635296], [73.07338, 33.632331], [73.072618, 33.630953], [73.07225, 33.630462], [73.071401, 33.629106], [73.071228, 33.628806], [73.070955, 33.62843], [73.070516, 33.627952], [73.070245, 33.627631], [73.066514, 33.621636], [73.066299, 33.62131], [73.066134, 33.620848], [73.065978, 33.620094], [73.065959, 33.619734], [73.065283, 33.615564], [73.065111, 33.614575], [73.065047, 33.612982], [73.065165, 33.611734], [73.065737, 33.606791], [73.065745, 33.606485], [73.065849, 33.605539], [73.065947, 33.604952], [73.065997, 33.604398], [73.065893, 33.603368], [73.065785, 33.602816], [73.06569, 33.602559], [73.065546, 33.602293], [73.065003, 33.601616], [73.064485, 33.601084], [73.063786, 33.600462], [73.063425, 33.600181], [73.062113, 33.599043], [73.061818, 33.598734], [73.058682, 33.595958], [73.057297, 33.594731], [73.056949, 33.594479], [73.055794, 33.593449]]}}]}